{"type": "FeatureCollection", "features": [{"type": "Feature", "properties": {"route_type": "US / State Route", "route_label": "Rte 840", "raw_number": "840"}, "geometry": {"type": "LineString", "coordinates": [[-87.274315, 36.024391], [-87.229164, 35.96361], [-87.161436, 35.906303], [-87.095446, 35.855942], [-87.036402, 35.822946], [-86.848849, 35.831629], [-86.75681, 35.812527], [-86.7516, 35.824683], [-86.742917, 35.835102], [-86.709922, 35.845522], [-86.531053, 35.866361], [-86.484165, 35.875044], [-86.478955, 35.890673], [-86.472798, 35.893752]]}}, {"type": "Feature", "properties": {"route_type": "US / State Route", "route_label": "Rte 19", "raw_number": "19"}, "geometry": {"type": "LineString", "coordinates": [[-84.29638859254868, 35.01663430038055], [-84.316895, 35.022376]]}}, {"type": "Feature", "properties": {"route_type": "Interstate", "route_label": "I-26", "raw_number": "26"}, "geometry": {"type": "LineString", "coordinates": [[-82.17686012105833, 36.61222393024001], [-82.175674, 36.576628], [-82.180883, 36.54537], [-82.198249, 36.531477], [-82.234718, 36.526267], [-82.246874, 36.519321], [-82.25903, 36.489799], [-82.354543, 36.401232], [-82.377119, 36.3665], [-82.370172, 36.354344]]}}, {"type": "Feature", "properties": {"route_type": "Interstate", "route_label": "I-81", "raw_number": "81"}, "geometry": {"type": "LineString", "coordinates": [[-82.257294, 36.595731], [-82.33544, 36.543633], [-82.382328, 36.53495], [-82.403167, 36.52453], [-82.418797, 36.512374], [-82.488261, 36.479379], [-82.557724, 36.435964], [-82.594193, 36.408179], [-82.618505, 36.402969], [-82.644554, 36.404705], [-82.693179, 36.359554], [-82.760906, 36.356081], [-82.929356, 36.272724], [-83.049181, 36.231046], [-83.099542, 36.204997], [-83.123854, 36.199787], [-83.188108, 36.201524], [-83.191581, 36.189368], [-83.318353, 36.128587], [-83.384343, 36.069543]]}}, {"type": "Feature", "properties": {"route_type": "Major Highway", "route_label": "51", "raw_number": "51"}, "geometry": {"type": "LineString", "coordinates": [[-89.330443, 36.090382], [-89.210618, 36.185895], [-89.203672, 36.206734], [-89.217564, 36.225836], [-89.221037, 36.250149], [-89.217564, 36.272724], [-89.207145, 36.30051], [-89.151574, 36.342188]]}}, {"type": "Feature", "properties": {"route_type": "US / State Route", "route_label": "Rte 70", "raw_number": "70"}, "geometry": {"type": "LineString", "coordinates": [[-88.51598, 34.998064], [-88.578498, 35.154357], [-88.60281, 35.176933], [-88.611493, 35.234241], [-88.630595, 35.253343], [-88.637542, 35.267236], [-88.637542, 35.399217], [-88.644488, 35.430476], [-88.665327, 35.453052], [-88.748684, 35.49994], [-88.779942, 35.524252], [-88.795572, 35.546828], [-88.821621, 35.612818], [-88.835513, 35.624974], [-88.851143, 35.626711], [-88.852879, 35.654497]]}}, {"type": "Feature", "properties": {"route_type": "Interstate", "route_label": "I-65", "raw_number": "65"}, "geometry": {"type": "LineString", "coordinates": [[-86.574467, 36.642619], [-86.586624, 36.613097], [-86.640458, 36.541896], [-86.678663, 36.467223], [-86.697766, 36.451593], [-86.711658, 36.425545], [-86.718605, 36.383866], [-86.702975, 36.310929], [-86.709922, 36.291827], [-86.730761, 36.269251]]}}, {"type": "Feature", "properties": {"route_type": "Interstate", "route_label": "I-155", "raw_number": "155"}, "geometry": {"type": "LineString", "coordinates": [[-89.634347, 36.116431], [-89.646503, 36.13206], [-89.64940007885852, 36.13446041770281]]}}, {"type": "Feature", "properties": {"route_type": "Interstate", "route_label": "I-24", "raw_number": "24"}, "geometry": {"type": "LineString", "coordinates": [[-85.702697, 35.043215], [-85.687068, 35.044952], [-85.643653, 35.060581], [-85.617604, 35.060581], [-85.582872, 35.044952], [-85.520355, 35.006747], [-85.508198, 34.985908], [-85.48215, 34.989381], [-85.469993, 34.984171]]}}, {"type": "Feature", "properties": {"route_type": "Interstate", "route_label": "I-40", "raw_number": "40"}, "geometry": {"type": "LineString", "coordinates": [[-84.254377, 35.871571], [-84.304738, 35.852468], [-84.351627, 35.869834], [-84.407198, 35.845522], [-84.506183, 35.876781], [-84.533969, 35.89762], [-84.563491, 35.901093], [-84.58954, 35.909776], [-84.657267, 35.89762], [-84.688526, 35.883727], [-84.718048, 35.89762], [-84.745833, 35.89241], [-84.790985, 35.90283], [-84.813561, 35.888937], [-84.877815, 35.901093], [-84.942069, 35.953191], [-84.994166, 35.96882], [-85.129621, 36.036547], [-85.181719, 36.04523], [-85.240763, 36.086909], [-85.259865, 36.114694], [-85.280705, 36.13727], [-85.301544, 36.140743], [-85.332802, 36.140743], [-85.353642, 36.130323], [-85.374481, 36.14248], [-85.393583, 36.145953], [-85.489096, 36.139006], [-85.610658, 36.14248], [-85.633233, 36.139006], [-85.694014, 36.112958], [-85.733956, 36.112958], [-85.891986, 36.156372], [-85.96145, 36.180685], [-86.04307, 36.172002], [-86.086484, 36.175475], [-86.112533, 36.170265], [-86.181997, 36.191104], [-86.208046, 36.194577], [-86.310505, 36.180685], [-86.406018, 36.184158], [-86.454642, 36.180685], [-86.539736, 36.165055], [-86.609199, 36.165055], [-86.661297, 36.147689], [-86.727288, 36.147689]]}}, {"type": "Feature", "properties": {"route_type": "US / State Route", "route_label": "Rte 45E", "raw_number": "45E"}, "geometry": {"type": "LineString", "coordinates": [[-88.856353, 35.661443], [-88.856353, 35.713541], [-88.84246, 35.763902], [-88.795572, 35.791688], [-88.762577, 35.828156], [-88.746947, 35.871571], [-88.75563, 35.918459], [-88.785152, 35.987923], [-88.799045, 36.010498], [-88.811201, 36.015708], [-88.818148, 36.046967], [-88.816411, 36.085172], [-88.802518, 36.154636], [-88.816411, 36.182421], [-88.83725, 36.258831], [-88.871982, 36.342188], [-88.873719, 36.37171], [-88.858089, 36.397759], [-88.882402, 36.522794]]}}, {"type": "Feature", "properties": {"route_type": "US / State Route", "route_label": "Rte 72", "raw_number": "72"}, "geometry": {"type": "LineString", "coordinates": [[-85.73784990315046, 34.96597789914281], [-85.746112, 34.978961], [-85.744375, 34.987644]]}}, {"type": "Feature", "properties": {"route_type": "Interstate", "route_label": "I-75", "raw_number": "75"}, "geometry": {"type": "LineString", "coordinates": [[-84.254377, 35.871571], [-84.282163, 35.836839], [-84.348153, 35.791688], [-84.391568, 35.73438], [-84.544389, 35.56072], [-84.582594, 35.525989], [-84.652057, 35.477364], [-84.707628, 35.42353], [-84.724994, 35.40269], [-84.744097, 35.362749], [-84.756253, 35.345383], [-84.825717, 35.301968], [-84.853502, 35.24466], [-84.886498, 35.194299]]}}, {"type": "Feature", "properties": {"route_type": "Interstate", "route_label": "I-26", "raw_number": "26"}, "geometry": {"type": "LineString", "coordinates": [[-82.22379066005271, 36.61248179306059], [-82.257294, 36.595731]]}}, {"type": "Feature", "properties": {"route_type": "Interstate", "route_label": "I-75", "raw_number": "75"}, "geometry": {"type": "LineString", "coordinates": [[-84.10733989934565, 36.60937046795774], [-84.103294, 36.593994]]}}, {"type": "Feature", "properties": {"route_type": "Interstate", "route_label": "I-65", "raw_number": "65"}, "geometry": {"type": "LineString", "coordinates": [[-86.55157062713262, 36.67380877894944], [-86.567521, 36.659985], [-86.574467, 36.642619]]}}, {"type": "Feature", "properties": {"route_type": "Interstate", "route_label": "I-26", "raw_number": "26"}, "geometry": {"type": "LineString", "coordinates": [[-82.370172, 36.354344], [-82.35107, 36.317876], [-82.319811, 36.279671], [-82.319811, 36.260568], [-82.330231, 36.236256], [-82.352806, 36.192841], [-82.41185, 36.151163], [-82.415324, 36.135533], [-82.446582, 36.119904], [-82.500417, 36.073016], [-82.519519, 36.071279], [-82.550778, 36.040021], [-82.550778, 36.026128], [-82.559461, 36.017445], [-82.554251, 35.986186], [-82.55622485387963, 35.969407389509215]]}}, {"type": "Feature", "properties": {"route_type": "Interstate", "route_label": "I-24", "raw_number": "24"}, "geometry": {"type": "LineString", "coordinates": [[-87.336832, 36.642619], [-87.36471635158189, 36.66178946035137]]}}, {"type": "Feature", "properties": {"route_type": "Interstate", "route_label": "I-40", "raw_number": "40"}, "geometry": {"type": "LineString", "coordinates": [[-83.384343, 36.069543], [-83.455544, 36.029601], [-83.479856, 36.019181], [-83.535427, 36.010498], [-83.578842, 35.991396], [-83.599681, 35.986186], [-83.63094, 35.98445], [-83.684774, 36.001815], [-83.769867, 36.001815], [-83.858434, 36.012235], [-83.915741, 35.98445], [-83.922688, 35.96882], [-83.945263, 35.967084]]}}, {"type": "Feature", "properties": {"route_type": "Interstate", "route_label": "I-75", "raw_number": "75"}, "geometry": {"type": "LineString", "coordinates": [[-84.103294, 36.593994], [-84.120659, 36.571418], [-84.209226, 36.488062], [-84.25785, 36.451593], [-84.294319, 36.430754], [-84.283899, 36.416862], [-84.242221, 36.380393], [-84.233538, 36.363027], [-84.230065, 36.312666], [-84.219645, 36.30051], [-84.217909, 36.279671], [-84.19186, 36.265778], [-84.092874, 36.175475], [-84.03383, 36.135533], [-84.03383, 36.123377], [-84.011254, 36.093855], [-84.016464, 36.081699], [-84.007781, 36.048704], [-84.009517, 36.012235], [-84.006044, 36.005289], [-83.945263, 35.967084]]}}, {"type": "Feature", "properties": {"route_type": "Interstate", "route_label": "I-40", "raw_number": "40"}, "geometry": {"type": "MultiLineString", "coordinates": [[[-83.037024, 35.755219], [-83.02898665930438, 35.745573635716696]], [[-83.384343, 36.069543], [-83.316616, 36.031338], [-83.307933, 36.015708], [-83.300987, 35.980976], [-83.29404, 35.967084], [-83.21763, 35.947981], [-83.195055, 35.930615], [-83.184635, 35.89241], [-83.182898, 35.838576], [-83.174215, 35.822946], [-83.155113, 35.822946], [-83.129064, 35.807317], [-83.06481, 35.758692], [-83.038761, 35.756956]]]}}, {"type": "Feature", "properties": {"route_type": "Interstate", "route_label": "I-24", "raw_number": "24"}, "geometry": {"type": "LineString", "coordinates": [[-86.788069, 36.248412], [-86.817591, 36.30572], [-86.900947, 36.333505], [-86.99646, 36.385603], [-87.131914, 36.472433], [-87.213534, 36.515847], [-87.243056, 36.543633], [-87.256949, 36.573155], [-87.281261, 36.602677], [-87.303837, 36.623516], [-87.336832, 36.642619]]}}, {"type": "Feature", "properties": {"route_type": "Interstate", "route_label": "I-40", "raw_number": "40"}, "geometry": {"type": "LineString", "coordinates": [[-83.945263, 35.967084], [-84.127606, 35.923669], [-84.254377, 35.871571]]}}, {"type": "Feature", "properties": {"route_type": "Major Highway", "route_label": "45W", "raw_number": "45W"}, "geometry": {"type": "LineString", "coordinates": [[-89.002227, 36.444647], [-88.925816, 36.482852], [-88.898031, 36.510638], [-88.89147208979506, 36.523755820409875]]}}, {"type": "Feature", "properties": {"route_type": "Interstate", "route_label": "I-24", "raw_number": "24"}, "geometry": {"type": "LineString", "coordinates": [[-86.786332, 36.163319], [-86.788069, 36.248412]]}}, {"type": "Feature", "properties": {"route_type": "Interstate", "route_label": "I-65", "raw_number": "65"}, "geometry": {"type": "LineString", "coordinates": [[-86.727288, 36.147689], [-86.755073, 36.151163], [-86.786332, 36.163319]]}}, {"type": "Feature", "properties": {"route_type": "US / State Route", "route_label": "Rte 51", "raw_number": "51"}, "geometry": {"type": "LineString", "coordinates": [[-89.151574, 36.342188], [-89.0769, 36.413388], [-89.07169, 36.413388], [-89.064744, 36.446384], [-89.002227, 36.444647]]}}, {"type": "Feature", "properties": {"route_type": "Interstate", "route_label": "I-155", "raw_number": "155"}, "geometry": {"type": "LineString", "coordinates": [[-89.634347, 36.116431], [-89.604825, 36.095592], [-89.439848, 36.069543], [-89.382541, 36.074752], [-89.330443, 36.090382]]}}, {"type": "Feature", "properties": {"route_type": "Interstate", "route_label": "I-40", "raw_number": "40"}, "geometry": {"type": "LineString", "coordinates": [[-88.856353, 35.661443], [-88.745211, 35.678809], [-88.569815, 35.7448], [-88.472565, 35.763902], [-88.262437, 35.819473], [-88.206866, 35.816], [-88.156505, 35.819473], [-88.109617, 35.833366], [-88.040153, 35.866361], [-87.989792, 35.871571], [-87.896016, 35.866361], [-87.843918, 35.88199], [-87.703254, 35.871571], [-87.691098, 35.88199], [-87.63379, 35.899356], [-87.618161, 35.909776], [-87.55738, 35.949718], [-87.540014, 35.96882], [-87.512228, 35.975767], [-87.461867, 35.998342], [-87.439292, 35.996606], [-87.409769, 36.008762], [-87.321203, 36.024391], [-87.282998, 36.026128], [-87.244793, 36.019181], [-87.204851, 36.027864], [-87.189222, 36.022655], [-87.156227, 36.040021], [-87.111075, 36.078226], [-87.069397, 36.088645], [-87.017299, 36.076489], [-86.970411, 36.071279], [-86.933943, 36.088645], [-86.869689, 36.13727], [-86.819327, 36.149426], [-86.786332, 36.163319]]}}, {"type": "Feature", "properties": {"route_type": "US / State Route", "route_label": "Rte 64", "raw_number": "64"}, "geometry": {"type": "LineString", "coordinates": [[-84.316895, 35.022376], [-84.396778, 35.034532], [-84.443666, 35.036269], [-84.459295, 35.067528], [-84.471452, 35.077947], [-84.490554, 35.088367], [-84.504447, 35.083157], [-84.520076, 35.088367], [-84.523549, 35.09705], [-84.570437, 35.119625], [-84.596486, 35.112679], [-84.610379, 35.10226], [-84.624272, 35.105733], [-84.652057, 35.098786], [-84.674633, 35.112679], [-84.688526, 35.110943], [-84.719785, 35.124835], [-84.764936, 35.136991], [-84.848293, 35.149148], [-84.843083, 35.161304], [-84.848293, 35.171723], [-84.886498, 35.194299]]}}, {"type": "Feature", "properties": {"route_type": "Interstate", "route_label": "I-75", "raw_number": "75"}, "geometry": {"type": "LineString", "coordinates": [[-84.886498, 35.194299], [-84.902127, 35.189089], [-84.947278, 35.150884], [-85.044528, 35.121362], [-85.06363, 35.09184], [-85.108782, 35.077947], [-85.126148, 35.067528], [-85.183455, 35.018903], [-85.207768, 35.00501]]}}, {"type": "Feature", "properties": {"route_type": "Interstate", "route_label": "I-24", "raw_number": "24"}, "geometry": {"type": "LineString", "coordinates": [[-85.197348, 34.985908], [-85.207768, 35.00501]]}}, {"type": "Feature", "properties": {"route_type": "Interstate", "route_label": "I-24", "raw_number": "24"}, "geometry": {"type": "LineString", "coordinates": [[-86.727288, 36.147689], [-86.729024, 36.116431], [-86.6804, 36.057387], [-86.630038, 36.022655], [-86.610936, 36.001815], [-86.577941, 35.987923], [-86.386915, 35.81079], [-86.280983, 35.668389], [-86.244515, 35.626711], [-86.234095, 35.585033], [-86.197626, 35.557247], [-86.107324, 35.517306], [-86.077801, 35.498203], [-86.034387, 35.440895], [-85.904142, 35.300231], [-85.878093, 35.26029], [-85.872883, 35.237714], [-85.858991, 35.242924], [-85.824259, 35.230768], [-85.815576, 35.197772], [-85.806893, 35.182143], [-85.791263, 35.171723], [-85.742639, 35.107469], [-85.739166, 35.090103], [-85.740902, 35.079684], [-85.735692, 35.069264], [-85.707907, 35.050162]]}}, {"type": "Feature", "properties": {"route_type": "Interstate", "route_label": "I-24", "raw_number": "24"}, "geometry": {"type": "LineString", "coordinates": [[-85.207768, 35.00501], [-85.218187, 34.9998], [-85.233817, 34.9998], [-85.310227, 35.02064], [-85.369271, 35.02064], [-85.397056, 35.011957], [-85.417896, 34.984171]]}}, {"type": "Feature", "properties": {"route_type": "Interstate", "route_label": "I-24", "raw_number": "24"}, "geometry": {"type": "LineString", "coordinates": [[-85.417896, 34.984171], [-85.442208, 34.970278]]}}, {"type": "Feature", "properties": {"route_type": "Interstate", "route_label": "I-24", "raw_number": "24"}, "geometry": {"type": "LineString", "coordinates": [[-85.469993, 34.984171], [-85.442208, 34.970278]]}}, {"type": "Feature", "properties": {"route_type": "US / State Route", "route_label": "Rte 64", "raw_number": "64"}, "geometry": {"type": "LineString", "coordinates": [[-85.744375, 34.987644], [-85.707907, 35.024113], [-85.680121, 35.039742], [-85.674912, 35.050162]]}}, {"type": "Feature", "properties": {"route_type": "Interstate", "route_label": "I-65", "raw_number": "65"}, "geometry": {"type": "LineString", "coordinates": [[-86.786332, 36.163319], [-86.767229, 36.090382], [-86.782859, 36.046967], [-86.789805, 36.010498], [-86.819327, 35.937562], [-86.836693, 35.819473], [-86.861006, 35.789951], [-86.876635, 35.73959], [-86.888791, 35.689228], [-86.892264, 35.631921], [-86.906157, 35.574613], [-86.907894, 35.555511], [-86.878371, 35.409637], [-86.883581, 35.367959], [-86.890528, 35.220348], [-86.873162, 35.201245], [-86.873162, 35.17867], [-86.883581, 35.103996], [-86.880108, 35.027586], [-86.885318, 34.992854]]}}, {"type": "Feature", "properties": {"route_type": "Major Highway", "route_label": "59", "raw_number": "59"}, "geometry": {"type": "LineString", "coordinates": [[-85.44630079718235, 34.96543126975888], [-85.442208, 34.970278]]}}, {"type": "Feature", "properties": {"route_type": "US / State Route", "route_label": "Rte 51", "raw_number": "51"}, "geometry": {"type": "LineString", "coordinates": [[-89.330443, 36.090382], [-89.32697, 36.078226], [-89.365175, 36.052177], [-89.389487, 36.05565], [-89.40859, 36.04523], [-89.415536, 36.029601], [-89.401643, 36.015708], [-89.396434, 35.961874], [-89.417273, 35.937562], [-89.427692, 35.885464], [-89.439848, 35.857678], [-89.462424, 35.826419], [-89.540571, 35.767375], [-89.597878, 35.659706], [-89.629137, 35.612818], [-89.653449, 35.557247], [-89.738543, 35.48431], [-89.919148, 35.338436], [-90.000768, 35.256816], [-90.028554, 35.199509]]}}, {"type": "Feature", "properties": {"route_type": "Interstate", "route_label": "I-40", "raw_number": "40"}, "geometry": {"type": "LineString", "coordinates": [[-88.856353, 35.661443], [-89.028275, 35.611082], [-89.198462, 35.552038], [-89.257506, 35.536408], [-89.280082, 35.475627], [-89.354755, 35.427003], [-89.431165, 35.383588], [-89.47979, 35.367959], [-89.542307, 35.338436], [-89.662132, 35.262026], [-89.835792, 35.176933], [-89.891363, 35.154357], [-89.912202, 35.17346], [-89.929568, 35.196036], [-90.018134, 35.196036], [-90.028554, 35.199509]]}}, {"type": "Feature", "properties": {"route_type": "Interstate", "route_label": "I-65", "raw_number": "65"}, "geometry": {"type": "LineString", "coordinates": [[-86.885318, 34.992854], [-86.88933823968705, 34.97677321932762]]}}, {"type": "Feature", "properties": {"route_type": "Interstate", "route_label": "I-55", "raw_number": "55"}, "geometry": {"type": "LineString", "coordinates": [[-90.15913199694162, 35.15925920021252], [-90.151852, 35.156094], [-90.071969, 35.136991]]}}, {"type": "Feature", "properties": {"route_type": "Interstate", "route_label": "I-40", "raw_number": "40"}, "geometry": {"type": "LineString", "coordinates": [[-90.028554, 35.199509], [-90.03029, 35.131782]]}}, {"type": "Feature", "properties": {"route_type": "Interstate", "route_label": "I-40", "raw_number": "40"}, "geometry": {"type": "LineString", "coordinates": [[-90.071969, 35.136991], [-90.03029, 35.131782]]}}, {"type": "Feature", "properties": {"route_type": "US / State Route", "route_label": "Rte 72", "raw_number": "72"}, "geometry": {"type": "LineString", "coordinates": [[-88.51908567457373, 34.975702999999996], [-88.51598, 34.998064]]}}, {"type": "Feature", "properties": {"route_type": "US / State Route", "route_label": "Rte 72", "raw_number": "72"}, "geometry": {"type": "LineString", "coordinates": [[-89.63782, 35.01022], [-89.615244, 34.996327], [-89.56606249763011, 34.975702999999996]]}}, {"type": "Feature", "properties": {"route_type": "Interstate", "route_label": "I-55", "raw_number": "55"}, "geometry": {"type": "LineString", "coordinates": [[-90.03029, 35.131782], [-90.028554, 35.112679], [-90.004242, 35.038006], [-90.005978, 34.996327]]}}, {"type": "Feature", "properties": {"route_type": "US / State Route", "route_label": "Rte 61", "raw_number": "61"}, "geometry": {"type": "LineString", "coordinates": [[-90.12233, 34.996327], [-90.075442, 35.036269], [-90.061549, 35.055372], [-90.03029, 35.131782]]}}, {"type": "Feature", "properties": {"route_type": "Interstate", "route_label": "I-75", "raw_number": "75"}, "geometry": {"type": "LineString", "coordinates": [[-85.18444007583301, 34.966545582821404], [-85.197348, 34.985908]]}}, {"type": "Feature", "properties": {"route_type": "Major Highway", "route_label": "78", "raw_number": "78"}, "geometry": {"type": "LineString", "coordinates": [[-89.84338687504318, 34.975702999999996], [-89.87226, 34.996327], [-89.898309, 35.01543], [-89.915675, 35.044952], [-90.03029, 35.131782]]}}, {"type": "Feature", "properties": {"route_type": "Interstate", "route_label": "I-55", "raw_number": "55"}, "geometry": {"type": "LineString", "coordinates": [[-90.005978, 34.996327], [-90.00194294252844, 34.975702999999996]]}}, {"type": "Feature", "properties": {"route_type": "US / State Route", "route_label": "Rte 49", "raw_number": "49"}, "geometry": {"type": "LineString", "coordinates": [[-90.13806943421731, 34.975702999999996], [-90.12233, 34.996327]]}}, {"type": "Feature", "properties": {"route_type": "US / State Route", "route_label": "Rte 840", "raw_number": "840"}, "geometry": {"type": "LineString", "coordinates": [[-86.472798, 35.893752], [-86.454642, 35.90283], [-86.428594, 35.972293], [-86.423384, 36.001815], [-86.426857, 36.071279], [-86.414701, 36.109484], [-86.386915, 36.140743], [-86.326134, 36.180685]]}}, {"type": "Feature", "properties": {"route_type": "US / State Route", "route_label": "Rte 17", "raw_number": "17"}, "geometry": {"type": "LineString", "coordinates": [[-87.66994739258847, 34.97916233997953], [-87.671676, 35.003364]]}}, {"type": "Feature", "properties": {"route_type": "US / State Route", "route_label": "Rte 43", "raw_number": "43"}, "geometry": {"type": "LineString", "coordinates": [[-87.51924127750019, 34.98014096155871], [-87.51021, 35.003364]]}}, {"type": "Feature", "properties": {"route_type": "US / State Route", "route_label": "Rte 231", "raw_number": "231"}, "geometry": {"type": "LineString", "coordinates": [[-86.56946179685247, 34.973774345165886], [-86.571318, 34.991403]]}}, {"type": "Feature", "properties": {"route_type": "US / State Route", "route_label": "Rte 411", "raw_number": "411"}, "geometry": {"type": "LineString", "coordinates": [[-84.738384, 34.988413], [-84.730908, 34.979443], [-84.7332189304989, 34.968465693686994]]}}, {"type": "Feature", "properties": {"route_type": "US / State Route", "route_label": "Rte 27", "raw_number": "27"}, "geometry": {"type": "LineString", "coordinates": [[-85.2618808782846, 34.96621604390736], [-85.278097, 34.982433], [-85.287068, 34.985423]]}}, {"type": "Feature", "properties": {"route_type": "US / State Route", "route_label": "Rte 31W", "raw_number": "31W"}, "geometry": {"type": "LineString", "coordinates": [[-86.563842, 36.632971], [-86.554872, 36.661377], [-86.5623416035493, 36.67418203465594]]}}, {"type": "Feature", "properties": {"route_type": "US / State Route", "route_label": "Rte 41", "raw_number": "41"}, "geometry": {"type": "LineString", "coordinates": [[-87.160368, 36.641941], [-87.166348, 36.649416], [-87.200735, 36.649416], [-87.2127480001387, 36.66443241757551]]}}, {"type": "Feature", "properties": {"route_type": "US / State Route", "route_label": "Rte 127", "raw_number": "127"}, "geometry": {"type": "LineString", "coordinates": [[-85.086731, 36.622505], [-85.10076359031687, 36.63954524440963]]}}, {"type": "Feature", "properties": {"route_type": "US / State Route", "route_label": "Rte 27", "raw_number": "27"}, "geometry": {"type": "LineString", "coordinates": [[-84.439373, 36.595594], [-84.439373, 36.613535], [-84.43935361145145, 36.61362709884785]]}}, {"type": "Feature", "properties": {"route_type": "US / State Route", "route_label": "Rte 31E", "raw_number": "31E"}, "geometry": {"type": "LineString", "coordinates": [[-86.243901, 36.641941], [-86.24803298185977, 36.66329003358669]]}}, {"type": "Feature", "properties": {"route_type": "US / State Route", "route_label": "Rte 431", "raw_number": "431"}, "geometry": {"type": "LineString", "coordinates": [[-86.853882, 36.646426], [-86.85272643052883, 36.670693731850555]]}}, {"type": "Feature", "properties": {"route_type": "US / State Route", "route_label": "Rte 641", "raw_number": "641"}, "geometry": {"type": "LineString", "coordinates": [[-88.326509, 36.499911], [-88.32585862238996, 36.51877238572624]]}}, {"type": "Feature", "properties": {"route_type": "US / State Route", "route_label": "Rte 79", "raw_number": "79"}, "geometry": {"type": "LineString", "coordinates": [[-87.20522, 36.641941], [-87.173824, 36.658386], [-87.16620645126397, 36.66524184481251]]}}, {"type": "Feature", "properties": {"route_type": "US / State Route", "route_label": "Rte 25E", "raw_number": "25E"}, "geometry": {"type": "LineString", "coordinates": [[-83.676896, 36.597089], [-83.69730337370194, 36.60474229833536]]}}, {"type": "Feature", "properties": {"route_type": "US / State Route", "route_label": "Rte 58", "raw_number": "58"}, "geometry": {"type": "LineString", "coordinates": [[-82.235666, 36.61254704286849], [-82.235666, 36.60905], [-82.226696, 36.60307]]}}, {"type": "Feature", "properties": {"route_type": "US / State Route", "route_label": "Rte 23", "raw_number": "23"}, "geometry": {"type": "LineString", "coordinates": [[-82.572053, 36.594099], [-82.56754836926763, 36.61437059157842]]}}, {"type": "Feature", "properties": {"route_type": "US / State Route", "route_label": "Rte 58", "raw_number": "58"}, "geometry": {"type": "LineString", "coordinates": [[-83.658956, 36.600079], [-83.6455, 36.60606], [-83.63055, 36.600079], [-83.617094, 36.604565], [-83.584203, 36.60606], [-83.55186410102057, 36.61977897674441]]}}, {"type": "Feature", "properties": {"route_type": "US / State Route", "route_label": "Rte 51", "raw_number": "51"}, "geometry": {"type": "LineString", "coordinates": [[-90.015918, 34.975702999999996], [-90.015918, 34.983928], [-90.024888, 34.994393]]}}, {"type": "Feature", "properties": {"route_type": "US / State Route", "route_label": "Rte 25", "raw_number": "25"}, "geometry": {"type": "LineString", "coordinates": [[-83.730718, 36.028969], [-83.729223, 36.025979], [-83.682877, 36.017009], [-83.652976, 36.019999], [-83.606629, 36.019999], [-83.576728, 36.024484], [-83.557292, 36.019999], [-83.49749, 36.028969], [-83.475064, 36.021494], [-83.464599, 36.024484], [-83.415262, 36.017009], [-83.391341, 36.030465], [-83.364431, 36.04093], [-83.34649, 36.04392], [-83.304628, 36.024484], [-83.297153, 36.005049], [-83.273232, 35.972157], [-83.264262, 35.969167], [-83.220906, 35.975148], [-83.199975, 35.967672], [-83.180539, 35.966177], [-83.173064, 35.958702], [-83.135688, 35.952722], [-83.108777, 35.955712], [-83.081866, 35.937771], [-83.05346, 35.948237], [-83.029539, 35.925811], [-83.002628, 35.927306], [-82.987677, 35.915345], [-82.971232, 35.925811], [-82.957776, 35.919831], [-82.945816, 35.922821], [-82.939836, 35.916841], [-82.912925, 35.918336]]}}, {"type": "Feature", "properties": {"route_type": "US / State Route", "route_label": "Rte 25W", "raw_number": "25W"}, "geometry": {"type": "LineString", "coordinates": [[-84.029729, 36.006544], [-84.0686, 36.028969], [-84.089531, 36.025979], [-84.116442, 36.04691], [-84.132887, 36.067841], [-84.131392, 36.093257], [-84.132887, 36.117178], [-84.143353, 36.123158], [-84.153818, 36.141098], [-84.147838, 36.151564], [-84.143353, 36.175485], [-84.144848, 36.202396], [-84.156808, 36.220336], [-84.161293, 36.233792]]}}, {"type": "Feature", "properties": {"route_type": "US / State Route", "route_label": "Rte 25W", "raw_number": "25W"}, "geometry": {"type": "LineString", "coordinates": [[-84.126907, 36.591109], [-84.110462, 36.579149], [-84.091026, 36.588119], [-84.07159, 36.576159], [-84.055145, 36.576159], [-84.037204, 36.568683], [-84.049164, 36.552238], [-84.06262, 36.555228], [-84.082056, 36.541772], [-84.079065, 36.526822], [-84.085046, 36.514861], [-84.073085, 36.48795], [-84.080561, 36.47599], [-84.07757, 36.437119], [-84.097006, 36.413198], [-84.125412, 36.396752], [-84.119432, 36.383297]]}}, {"type": "Feature", "properties": {"route_type": "US / State Route", "route_label": "Rte 31", "raw_number": "31"}, "geometry": {"type": "LineString", "coordinates": [[-86.879298, 35.013829], [-86.886774, 35.045225], [-86.904714, 35.069146], [-86.916675, 35.072136], [-86.92714, 35.087087], [-86.952556, 35.090077], [-86.963021, 35.111007], [-86.977972, 35.122968], [-86.983952, 35.134928], [-87.000398, 35.146889], [-87.019833, 35.175295], [-87.034784, 35.19174], [-87.031794, 35.196225]]}}, {"type": "Feature", "properties": {"route_type": "US / State Route", "route_label": "Rte 31", "raw_number": "31"}, "geometry": {"type": "LineString", "coordinates": [[-86.807536, 36.123158], [-86.815011, 36.105217], [-86.825476, 36.096247], [-86.843417, 36.067841], [-86.888269, 36.017009], [-86.885278, 36.000563], [-86.891259, 35.987108], [-86.877803, 35.933286], [-86.868833, 35.915345], [-86.849397, 35.906375], [-86.844912, 35.874979], [-86.852387, 35.807702], [-86.843417, 35.795741], [-86.841922, 35.770325], [-86.835942, 35.75089], [-86.840427, 35.734444], [-86.835942, 35.707533], [-86.829962, 35.688098], [-86.831457, 35.656701], [-86.825476, 35.647731], [-86.825476, 35.62082], [-86.822486, 35.60587], [-86.837437, 35.574474], [-86.825476, 35.543077], [-86.823981, 35.528127], [-86.806041, 35.496731], [-86.807536, 35.47879], [-86.78212, 35.46085], [-86.774645, 35.444404], [-86.783615, 35.430949], [-86.801556, 35.426463], [-86.806041, 35.405533], [-86.837437, 35.375632], [-86.843417, 35.353206], [-86.883783, 35.305364], [-86.92116, 35.273968], [-86.928635, 35.260513], [-86.961526, 35.248552], [-86.974982, 35.233602], [-86.998902, 35.220146], [-87.006378, 35.211176], [-87.027308, 35.206691], [-87.031794, 35.196225]]}}, {"type": "Feature", "properties": {"route_type": "US / State Route", "route_label": "Rte 31", "raw_number": "31"}, "geometry": {"type": "LineString", "coordinates": [[-87.027308, 35.206691], [-87.030299, 35.217156], [-87.043754, 35.236592], [-87.040764, 35.259018], [-87.043754, 35.272473], [-87.025813, 35.290414], [-87.034784, 35.344236], [-87.033289, 35.374137], [-87.022823, 35.390582], [-87.028804, 35.414503], [-87.042259, 35.439919], [-87.037774, 35.453374], [-87.052724, 35.492246], [-87.055714, 35.517662], [-87.046744, 35.532612], [-87.042259, 35.559523], [-87.040764, 35.589424]]}}, {"type": "Feature", "properties": {"route_type": "US / State Route", "route_label": "Rte 31", "raw_number": "31"}, "geometry": {"type": "LineString", "coordinates": [[-86.943586, 35.740424], [-86.92116, 35.761355], [-86.900229, 35.807702], [-86.882288, 35.830128], [-86.883783, 35.873484], [-86.868833, 35.925811]]}}, {"type": "Feature", "properties": {"route_type": "US / State Route", "route_label": "Rte 31", "raw_number": "31"}, "geometry": {"type": "LineString", "coordinates": [[-86.770159, 36.150069], [-86.755209, 36.129138], [-86.737268, 36.094752], [-86.717833, 36.066346], [-86.713347, 36.024484], [-86.678961, 35.982623], [-86.677466, 35.969167], [-86.662516, 35.939266], [-86.658031, 35.919831], [-86.665506, 35.903385], [-86.659526, 35.854048], [-86.664011, 35.836108], [-86.661021, 35.827137], [-86.664011, 35.800226], [-86.677466, 35.785276], [-86.696902, 35.74491], [-86.698397, 35.713513], [-86.686437, 35.665672], [-86.690922, 35.634276], [-86.698397, 35.619325], [-86.699892, 35.599889], [-86.695407, 35.583444], [-86.705872, 35.564008], [-86.711852, 35.505701], [-86.755209, 35.48178], [-86.78212, 35.46085]]}}, {"type": "Feature", "properties": {"route_type": "US / State Route", "route_label": "Rte 321", "raw_number": "321"}, "geometry": {"type": "LineString", "coordinates": [[-82.175864, 36.289109], [-82.154933, 36.284623], [-82.116062, 36.308544], [-82.092141, 36.317515], [-82.048785, 36.317515], [-82.026359, 36.322], [-82.015893, 36.308544], [-81.999448, 36.301069], [-82.011408, 36.287613], [-81.991973, 36.277148], [-81.966557, 36.287613], [-81.944131, 36.286118], [-81.930675, 36.280138], [-81.921705, 36.283128]]}}, {"type": "Feature", "properties": {"route_type": "US / State Route", "route_label": "Rte 321", "raw_number": "321"}, "geometry": {"type": "LineString", "coordinates": [[-83.188014, 35.966177], [-83.186519, 35.973653], [-83.122232, 35.994583], [-83.113262, 36.003554], [-83.096816, 36.009534], [-83.077381, 36.009534], [-83.041499, 36.021494], [-83.035519, 36.03196], [-83.022064, 36.03794], [-83.007113, 36.036445], [-82.974222, 36.060366], [-82.957776, 36.082791], [-82.927875, 36.099237], [-82.889004, 36.132128], [-82.839667, 36.157544], [-82.833687, 36.159039], [-82.821727, 36.178475]]}}, {"type": "Feature", "properties": {"route_type": "US / State Route", "route_label": "Rte 321", "raw_number": "321"}, "geometry": {"type": "LineString", "coordinates": [[-83.510946, 35.713513], [-83.48852, 35.726969], [-83.464599, 35.725474], [-83.442173, 35.734444], [-83.419747, 35.737434], [-83.401807, 35.749395], [-83.385361, 35.752385], [-83.371906, 35.761355], [-83.35845, 35.758365], [-83.301638, 35.76285], [-83.244826, 35.779296], [-83.235856, 35.794246], [-83.249312, 35.803217], [-83.240341, 35.830128], [-83.21642, 35.848068], [-83.223896, 35.871989], [-83.19848, 35.880959], [-83.186519, 35.879464]]}}, {"type": "Feature", "properties": {"route_type": "US / State Route", "route_label": "Rte 33", "raw_number": "33"}, "geometry": {"type": "LineString", "coordinates": [[-83.925075, 35.970662], [-83.910125, 35.942256], [-83.898164, 35.928801], [-83.878728, 35.921326], [-83.862283, 35.921326], [-83.853313, 35.91086], [-83.833877, 35.906375], [-83.797996, 35.891425], [-83.793511, 35.885444], [-83.757629, 35.870494]]}}, {"type": "Feature", "properties": {"route_type": "US / State Route", "route_label": "Rte 41", "raw_number": "41"}, "geometry": {"type": "LineString", "coordinates": [[-86.885278, 36.528317], [-86.922655, 36.547753], [-86.964516, 36.553733], [-87.000398, 36.553733], [-87.07515, 36.588119], [-87.08412, 36.588119], [-87.115517, 36.607555], [-87.152893, 36.638951], [-87.160368, 36.641941]]}}, {"type": "Feature", "properties": {"route_type": "US / State Route", "route_label": "Rte 41", "raw_number": "41"}, "geometry": {"type": "LineString", "coordinates": [[-86.662516, 35.807702], [-86.644575, 35.773316], [-86.650555, 35.740424], [-86.64009, 35.722484], [-86.619159, 35.697068], [-86.608694, 35.680622], [-86.596733, 35.670157], [-86.592248, 35.62381], [-86.572813, 35.599889], [-86.553377, 35.587929], [-86.535436, 35.553543], [-86.520486, 35.538592], [-86.508525, 35.520652], [-86.466664, 35.490751], [-86.412842, 35.483275], [-86.385931, 35.471315], [-86.360515, 35.46384], [-86.335099, 35.448889], [-86.308188, 35.447394], [-86.281277, 35.423473], [-86.275297, 35.411513], [-86.263337, 35.407028], [-86.234931, 35.387592], [-86.215495, 35.366661]]}}, {"type": "Feature", "properties": {"route_type": "US / State Route", "route_label": "Rte 41", "raw_number": "41"}, "geometry": {"type": "LineString", "coordinates": [[-86.206525, 35.356196], [-86.194564, 35.345731], [-86.130277, 35.273968], [-86.116822, 35.242572], [-86.094396, 35.209681], [-86.097386, 35.19772], [-86.112337, 35.187255]]}}, {"type": "Feature", "properties": {"route_type": "US / State Route", "route_label": "Rte 411", "raw_number": "411"}, "geometry": {"type": "LineString", "coordinates": [[-83.567758, 35.868999], [-83.546827, 35.864514], [-83.509451, 35.863019], [-83.478055, 35.879464], [-83.452639, 35.885444], [-83.410777, 35.909365], [-83.368916, 35.912355], [-83.35247, 35.916841], [-83.34051, 35.930296], [-83.306123, 35.940761], [-83.286688, 35.957207], [-83.264262, 35.969167]]}}, {"type": "Feature", "properties": {"route_type": "US / State Route", "route_label": "Rte 411", "raw_number": "411"}, "geometry": {"type": "LineString", "coordinates": [[-83.965442, 35.75687], [-83.922085, 35.767335], [-83.893679, 35.783781], [-83.860788, 35.792751], [-83.839857, 35.807702], [-83.792015, 35.836108], [-83.786035, 35.849563], [-83.757629, 35.870494], [-83.739689, 35.860029], [-83.723243, 35.857038], [-83.709788, 35.848068], [-83.690352, 35.851058], [-83.658956, 35.866009], [-83.63952, 35.852553], [-83.596164, 35.870494]]}}, {"type": "Feature", "properties": {"route_type": "US / State Route", "route_label": "Rte 412", "raw_number": "412"}, "geometry": {"type": "LineString", "coordinates": [[-88.250261, 35.638761], [-88.230825, 35.640256], [-88.209895, 35.634276], [-88.120192, 35.650721], [-88.070855, 35.635771], [-88.051419, 35.632781], [-88.021518, 35.62381], [-88.017033, 35.616335], [-87.982647, 35.619325], [-87.958726, 35.61783], [-87.93929, 35.622315], [-87.886963, 35.616335], [-87.866033, 35.6268], [-87.848092, 35.61783], [-87.816696, 35.62381], [-87.804736, 35.632781], [-87.789785, 35.635771], [-87.756894, 35.629791], [-87.737458, 35.622315], [-87.677656, 35.584939], [-87.665696, 35.565503], [-87.64028, 35.555038], [-87.614864, 35.549058], [-87.586458, 35.552048], [-87.547587, 35.547563], [-87.529646, 35.561018], [-87.496755, 35.566998], [-87.474329, 35.578959], [-87.465359, 35.589424], [-87.451903, 35.590919], [-87.419012, 35.568493], [-87.393596, 35.562513], [-87.323329, 35.568493], [-87.309873, 35.590919], [-87.268012, 35.604375], [-87.250071, 35.607365], [-87.224655, 35.61783], [-87.128972, 35.613345], [-87.115517, 35.61783], [-87.076645, 35.619325], [-87.036279, 35.61484]]}}, {"type": "Feature", "properties": {"route_type": "US / State Route", "route_label": "Rte 412", "raw_number": "412"}, "geometry": {"type": "LineString", "coordinates": [[-87.016843, 35.635771], [-86.964516, 35.635771], [-86.94209, 35.632781], [-86.892754, 35.643246]]}}, {"type": "Feature", "properties": {"route_type": "US / State Route", "route_label": "Rte 41A", "raw_number": "41A"}, "geometry": {"type": "LineString", "coordinates": [[-87.366685, 36.508881], [-87.339774, 36.499911], [-87.320339, 36.504396], [-87.294923, 36.499911], [-87.272497, 36.508881]]}}, {"type": "Feature", "properties": {"route_type": "US / State Route", "route_label": "Rte 431", "raw_number": "431"}, "geometry": {"type": "LineString", "coordinates": [[-86.569822, 35.142404], [-86.589258, 35.196225], [-86.604209, 35.208186], [-86.626634, 35.264998], [-86.63411, 35.299384], [-86.641585, 35.314335], [-86.674476, 35.341245], [-86.683446, 35.353206], [-86.692417, 35.393572], [-86.702882, 35.420483], [-86.713347, 35.426463], [-86.774645, 35.445899]]}}, {"type": "Feature", "properties": {"route_type": "US / State Route", "route_label": "Rte 45W", "raw_number": "45W"}, "geometry": {"type": "LineString", "coordinates": [[-89.012738, 36.443099], [-89.017223, 36.411703], [-89.057589, 36.414693], [-89.07553, 36.302564], [-89.074035, 36.295089], [-89.011243, 36.202396]]}}, {"type": "Feature", "properties": {"route_type": "US / State Route", "route_label": "Rte 45W", "raw_number": "45W"}, "geometry": {"type": "LineString", "coordinates": [[-88.93948, 35.91385], [-88.940975, 35.939266], [-88.93051, 35.970662], [-88.932005, 36.000563], [-88.948451, 36.006544]]}}, {"type": "Feature", "properties": {"route_type": "US / State Route", "route_label": "Rte 70", "raw_number": "70"}, "geometry": {"type": "LineString", "coordinates": [[-86.276792, 36.209871], [-86.275297, 36.196415], [-86.234931, 36.147079], [-86.206525, 36.124653], [-86.182604, 36.099237], [-86.152703, 36.096247], [-86.122802, 36.099237], [-86.103366, 36.088772], [-86.073465, 36.091762], [-86.033099, 36.069336], [-86.018148, 36.051395], [-86.000208, 36.011029], [-85.976287, 36.005049], [-85.955356, 36.014019], [-85.93293, 36.011029], [-85.91798, 36.000563], [-85.897049, 36.000563], [-85.868643, 35.981128], [-85.855188, 35.967672], [-85.834257, 35.958702], [-85.78791, 35.957207], [-85.743059, 35.949732], [-85.732593, 35.951227], [-85.719138, 35.964682], [-85.702692, 35.975148], [-85.684752, 35.976643], [-85.657841, 35.966177], [-85.536741, 35.949732], [-85.48591, 35.936276], [-85.467969, 35.927306], [-85.444048, 35.924316], [-85.424612, 35.928801], [-85.406672, 35.919831], [-85.384246, 35.924316], [-85.366305, 35.940761], [-85.345375, 35.939266], [-85.315474, 35.945247], [-85.269127, 35.966177], [-85.237731, 35.964682], [-85.221285, 35.970662], [-85.170454, 35.975148], [-85.101681, 35.951227], [-85.079255, 35.957207], [-85.041879, 35.960197], [-85.025434, 35.945247], [-85.007493, 35.952722], [-84.979087, 35.957207], [-84.952176, 35.949732], [-84.938721, 35.933286], [-84.905829, 35.909365], [-84.881909, 35.909365], [-84.856493, 35.8989], [-84.841542, 35.888435], [-84.792205, 35.879464], [-84.78772, 35.873484], [-84.762304, 35.866009], [-84.730908, 35.849563], [-84.714463, 35.855543], [-84.703997, 35.845078]]}}, {"type": "Feature", "properties": {"route_type": "US / State Route", "route_label": "Rte 70", "raw_number": "70"}, "geometry": {"type": "LineString", "coordinates": [[-86.06898, 35.827137], [-86.037584, 35.819662], [-86.019643, 35.803217], [-85.998713, 35.798731], [-85.997217, 35.791256], [-85.968811, 35.752385], [-85.958346, 35.749395], [-85.934425, 35.731454], [-85.885089, 35.707533], [-85.864158, 35.707533], [-85.837247, 35.704543], [-85.811831, 35.695573]]}}, {"type": "Feature", "properties": {"route_type": "US / State Route", "route_label": "Rte 70", "raw_number": "70"}, "geometry": {"type": "LineString", "coordinates": [[-88.746618, 35.676137], [-88.719708, 35.710523], [-88.716717, 35.728464], [-88.691302, 35.749395], [-88.676351, 35.767335], [-88.615054, 35.812187], [-88.597113, 35.815177], [-88.550767, 35.867504], [-88.532826, 35.89292], [-88.50442, 35.924316], [-88.487974, 35.931791], [-88.461064, 35.963187], [-88.434153, 35.997573], [-88.395281, 36.011029]]}}, {"type": "Feature", "properties": {"route_type": "US / State Route", "route_label": "Rte 70", "raw_number": "70"}, "geometry": {"type": "LineString", "coordinates": [[-89.888838, 35.152869], [-89.806611, 35.232107], [-89.695977, 35.275463], [-89.685511, 35.288919], [-89.642155, 35.306859], [-89.565907, 35.386097], [-89.538996, 35.410018], [-89.506105, 35.424968], [-89.405937, 35.462345], [-89.389491, 35.4758], [-89.35062, 35.517662], [-89.349125, 35.529622], [-89.283342, 35.580454]]}}, {"type": "Feature", "properties": {"route_type": "US / State Route", "route_label": "Rte 76", "raw_number": "76"}, "geometry": {"type": "LineString", "coordinates": [[-87.272497, 36.508881], [-87.268012, 36.514861], [-87.221665, 36.525327]]}}, {"type": "Feature", "properties": {"route_type": "US / State Route", "route_label": "Rte 25W", "raw_number": "25W"}, "geometry": {"type": "LineString", "coordinates": [[-84.029729, 36.006544], [-84.001323, 36.009534], [-83.956471, 35.999068]]}}, {"type": "Feature", "properties": {"route_type": "US / State Route", "route_label": "Rte 25W", "raw_number": "25W"}, "geometry": {"type": "LineString", "coordinates": [[-84.21661, 36.298079], [-84.21063, 36.308544], [-84.153818, 36.351901], [-84.149333, 36.353396], [-84.119432, 36.383297]]}}, {"type": "Feature", "properties": {"route_type": "US / State Route", "route_label": "Rte 31", "raw_number": "31"}, "geometry": {"type": "LineString", "coordinates": [[-87.040764, 35.589424], [-87.034784, 35.62082], [-87.016843, 35.635771]]}}, {"type": "Feature", "properties": {"route_type": "US / State Route", "route_label": "Rte 321", "raw_number": "321"}, "geometry": {"type": "LineString", "coordinates": [[-83.995343, 35.749395], [-83.962451, 35.755375]]}}, {"type": "Feature", "properties": {"route_type": "US / State Route", "route_label": "Rte 41", "raw_number": "41"}, "geometry": {"type": "LineString", "coordinates": [[-86.798565, 36.184455], [-86.800061, 36.19193], [-86.822486, 36.18894], [-86.837437, 36.196415]]}}, {"type": "Feature", "properties": {"route_type": "US / State Route", "route_label": "Rte 41", "raw_number": "41"}, "geometry": {"type": "LineString", "coordinates": [[-86.587763, 36.025979], [-86.542912, 36.009534], [-86.429288, 35.880959], [-86.412842, 35.866009], [-86.399387, 35.849563]]}}, {"type": "Feature", "properties": {"route_type": "US / State Route", "route_label": "Rte 411", "raw_number": "411"}, "geometry": {"type": "LineString", "coordinates": [[-83.596164, 35.870494], [-83.585698, 35.874979], [-83.567758, 35.868999]]}}, {"type": "Feature", "properties": {"route_type": "US / State Route", "route_label": "Rte 412", "raw_number": "412"}, "geometry": {"type": "LineString", "coordinates": [[-88.531331, 35.691088], [-88.480499, 35.679127], [-88.428172, 35.661187], [-88.399766, 35.653711], [-88.381826, 35.641751], [-88.357905, 35.638761], [-88.305578, 35.628295], [-88.250261, 35.638761]]}}, {"type": "Feature", "properties": {"route_type": "US / State Route", "route_label": "Rte 412", "raw_number": "412"}, "geometry": {"type": "LineString", "coordinates": [[-88.635985, 35.706038], [-88.609074, 35.709028]]}}, {"type": "Feature", "properties": {"route_type": "US / State Route", "route_label": "Rte 45W", "raw_number": "45W"}, "geometry": {"type": "LineString", "coordinates": [[-88.915559, 35.837603], [-88.915559, 35.845078], [-88.93948, 35.91385]]}}, {"type": "Feature", "properties": {"route_type": "US / State Route", "route_label": "Rte 45W", "raw_number": "45W"}, "geometry": {"type": "LineString", "coordinates": [[-88.842302, 35.76285], [-88.891639, 35.804712], [-88.887153, 35.831623], [-88.896124, 35.834613]]}}, {"type": "Feature", "properties": {"route_type": "US / State Route", "route_label": "Rte 45W", "raw_number": "45W"}, "geometry": {"type": "LineString", "coordinates": [[-88.948451, 36.006544], [-88.958916, 36.017009], [-88.997787, 36.072326], [-89.002272, 36.090267], [-88.987322, 36.114187], [-88.987322, 36.132128], [-89.008253, 36.18595], [-89.011243, 36.202396]]}}, {"type": "Feature", "properties": {"route_type": "US / State Route", "route_label": "Rte 64", "raw_number": "64"}, "geometry": {"type": "LineString", "coordinates": [[-89.835017, 35.205196], [-89.772224, 35.203701]]}}, {"type": "Feature", "properties": {"route_type": "US / State Route", "route_label": "Rte 70", "raw_number": "70"}, "geometry": {"type": "LineString", "coordinates": [[-86.385931, 35.837603], [-86.35902, 35.840593], [-86.300713, 35.830128], [-86.252871, 35.827137], [-86.21101, 35.810692], [-86.163168, 35.804712], [-86.139247, 35.806207], [-86.104861, 35.815177], [-86.083931, 35.827137], [-86.06898, 35.827137]]}}, {"type": "Feature", "properties": {"route_type": "US / State Route", "route_label": "Rte 70", "raw_number": "70"}, "geometry": {"type": "LineString", "coordinates": [[-88.819876, 35.613345], [-88.80343, 35.61185], [-88.786985, 35.62082], [-88.78549, 35.634276], [-88.746618, 35.676137]]}}, {"type": "Feature", "properties": {"route_type": "US / State Route", "route_label": "Rte 70", "raw_number": "70"}, "geometry": {"type": "LineString", "coordinates": [[-88.926025, 35.610355], [-88.881173, 35.61783], [-88.842302, 35.61783]]}}, {"type": "Feature", "properties": {"route_type": "US / State Route", "route_label": "Rte 13", "raw_number": "13"}, "geometry": {"type": "LineString", "coordinates": [[-87.673171, 36.31901], [-87.647755, 36.31901], [-87.617854, 36.33097], [-87.604399, 36.338445], [-87.577488, 36.335455], [-87.555062, 36.344425], [-87.511705, 36.350406], [-87.499745, 36.365356], [-87.465359, 36.365356], [-87.447418, 36.375822], [-87.413032, 36.383297], [-87.384626, 36.395257]]}}, {"type": "Feature", "properties": {"route_type": "US / State Route", "route_label": "Rte 13", "raw_number": "13"}, "geometry": {"type": "LineString", "coordinates": [[-87.762874, 35.320315], [-87.759884, 35.348721], [-87.762874, 35.380117], [-87.774835, 35.396562], [-87.78829, 35.398057], [-87.809221, 35.414503], [-87.783805, 35.438424], [-87.774835, 35.459355], [-87.767359, 35.465335], [-87.771844, 35.480285], [-87.780815, 35.47281], [-87.827161, 35.477295], [-87.831647, 35.486266], [-87.851082, 35.501216], [-87.851082, 35.535602], [-87.869023, 35.577464], [-87.861548, 35.592414], [-87.837627, 35.60886], [-87.834637, 35.629791], [-87.828656, 35.635771], [-87.816696, 35.668662], [-87.806231, 35.677632], [-87.795765, 35.719494], [-87.809221, 35.735939], [-87.807726, 35.75089], [-87.786795, 35.75388], [-87.77633, 35.785276], [-87.783805, 35.795741], [-87.777825, 35.809197], [-87.789785, 35.833118], [-87.806231, 35.845078], [-87.809221, 35.866009], [-87.78829, 35.89292], [-87.770349, 35.928801], [-87.750914, 35.952722], [-87.752409, 35.967672], [-87.762874, 35.978138], [-87.762874, 35.993088], [-87.77334, 36.011029], [-87.771844, 36.042425], [-87.780815, 36.064851], [-87.79427, 36.076811], [-87.783805, 36.099237], [-87.77932, 36.136613], [-87.768854, 36.159039], [-87.753904, 36.163524], [-87.729983, 36.181465], [-87.731478, 36.2009], [-87.707557, 36.227811], [-87.677656, 36.278643], [-87.673171, 36.31901]]}}, {"type": "Feature", "properties": {"route_type": "US / State Route", "route_label": "Rte 13", "raw_number": "13"}, "geometry": {"type": "LineString", "coordinates": [[-87.671676, 35.003364], [-87.671676, 35.036255], [-87.685131, 35.060176], [-87.752409, 35.108017], [-87.762874, 35.125958], [-87.746429, 35.142404], [-87.743438, 35.167819], [-87.731478, 35.181275], [-87.718023, 35.206691], [-87.719518, 35.226126], [-87.747924, 35.235097], [-87.768854, 35.248552], [-87.762874, 35.31882]]}}, {"type": "Feature", "properties": {"route_type": "US / State Route", "route_label": "Rte 13", "raw_number": "13"}, "geometry": {"type": "LineString", "coordinates": [[-87.384626, 36.395257], [-87.369675, 36.440109], [-87.377151, 36.46104], [-87.377151, 36.473]]}}, {"type": "Feature", "properties": {"route_type": "US / State Route", "route_label": "Rte 13", "raw_number": "13"}, "geometry": {"type": "LineString", "coordinates": [[-87.374161, 36.480475], [-87.372666, 36.499911], [-87.366685, 36.508881]]}}, {"type": "Feature", "properties": {"route_type": "US / State Route", "route_label": "Rte 42", "raw_number": "42"}, "geometry": {"type": "LineString", "coordinates": [[-85.334909, 36.378812], [-85.333414, 36.390772], [-85.300523, 36.398247], [-85.293048, 36.404228], [-85.279592, 36.429643], [-85.270622, 36.438614], [-85.221285, 36.444594], [-85.20484, 36.456554], [-85.186899, 36.480475], [-85.162978, 36.528317], [-85.165968, 36.562703], [-85.161483, 36.571673], [-85.143543, 36.574664], [-85.119622, 36.592604], [-85.118127, 36.604565], [-85.104671, 36.60307], [-85.086731, 36.622505]]}}, {"type": "Feature", "properties": {"route_type": "US / State Route", "route_label": "Rte 50", "raw_number": "50"}, "geometry": {"type": "LineString", "coordinates": [[-86.530951, 35.164829], [-86.516001, 35.187255], [-86.49208, 35.203701], [-86.456199, 35.214166], [-86.439753, 35.223136], [-86.424802, 35.223136], [-86.378456, 35.281443], [-86.369485, 35.285929], [-86.35902, 35.31583], [-86.35005, 35.326295], [-86.348555, 35.344236], [-86.329119, 35.353206], [-86.215495, 35.366661]]}}, {"type": "Feature", "properties": {"route_type": "US / State Route", "route_label": "Rte 55", "raw_number": "55"}, "geometry": {"type": "LineString", "coordinates": [[-86.206525, 35.356196], [-86.160178, 35.386097]]}}, {"type": "Feature", "properties": {"route_type": "US / State Route", "route_label": "Rte 55", "raw_number": "55"}, "geometry": {"type": "LineString", "coordinates": [[-85.946386, 35.580454], [-85.912, 35.607365], [-85.817811, 35.647731]]}}, {"type": "Feature", "properties": {"route_type": "US / State Route", "route_label": "Rte 61", "raw_number": "61"}, "geometry": {"type": "LineString", "coordinates": [[-84.499175, 35.970662], [-84.467779, 35.970662], [-84.439373, 35.979633], [-84.418442, 35.994583], [-84.388541, 36.008039], [-84.373591, 36.021494], [-84.35864, 36.04093], [-84.34668, 36.045415]]}}, {"type": "Feature", "properties": {"route_type": "US / State Route", "route_label": "Rte 11E", "raw_number": "11E"}, "geometry": {"type": "LineString", "coordinates": [[-83.322569, 36.206881], [-83.315094, 36.202396], [-83.258282, 36.223326]]}}, {"type": "Feature", "properties": {"route_type": "US / State Route", "route_label": "Rte 11E", "raw_number": "11E"}, "geometry": {"type": "LineString", "coordinates": [[-83.258282, 36.227811], [-83.232866, 36.241267], [-83.188014, 36.260703], [-83.173064, 36.260703], [-83.153628, 36.269673], [-83.126717, 36.274158], [-83.098311, 36.265188], [-83.081866, 36.253227], [-83.077381, 36.241267], [-83.05047, 36.226316], [-83.040004, 36.224821]]}}, {"type": "Feature", "properties": {"route_type": "US / State Route", "route_label": "Rte 11W", "raw_number": "11W"}, "geometry": {"type": "LineString", "coordinates": [[-83.691847, 36.169504], [-83.664936, 36.202396], [-83.608124, 36.241267], [-83.570748, 36.260703], [-83.525896, 36.278643], [-83.510946, 36.281633], [-83.476559, 36.298079], [-83.457124, 36.304059], [-83.421243, 36.308544], [-83.371906, 36.33097], [-83.333034, 36.34293]]}}, {"type": "Feature", "properties": {"route_type": "US / State Route", "route_label": "Rte 11W", "raw_number": "11W"}, "geometry": {"type": "LineString", "coordinates": [[-83.06542, 36.378812], [-83.028044, 36.395257], [-83.010103, 36.410208], [-82.981697, 36.428148]]}}, {"type": "Feature", "properties": {"route_type": "US / State Route", "route_label": "Rte 127", "raw_number": "127"}, "geometry": {"type": "LineString", "coordinates": [[-85.324444, 35.085592], [-85.333414, 35.105027], [-85.34687, 35.105027], [-85.354345, 35.118483], [-85.337899, 35.124463], [-85.315474, 35.158849], [-85.322949, 35.170809], [-85.35285, 35.18875], [-85.369296, 35.205196], [-85.388731, 35.211176], [-85.411157, 35.230612], [-85.405177, 35.250047], [-85.391721, 35.260513], [-85.396206, 35.275463], [-85.381256, 35.291909], [-85.388731, 35.32779], [-85.397702, 35.341245], [-85.396206, 35.359186], [-85.36481, 35.413008], [-85.345375, 35.441414], [-85.285573, 35.507196], [-85.255672, 35.543077], [-85.245206, 35.564008], [-85.227266, 35.575969], [-85.191384, 35.596899], [-85.186899, 35.616335], [-85.164473, 35.647731], [-85.127097, 35.679127], [-85.06879, 35.743414], [-85.058325, 35.749395], [-85.047859, 35.76584], [-85.031414, 35.780791], [-85.020948, 35.801722], [-85.017958, 35.842088], [-85.004503, 35.868999], [-85.001513, 35.88694], [-84.985067, 35.90488], [-85.022443, 35.942256], [-85.035899, 35.961692]]}}, {"type": "Feature", "properties": {"route_type": "US / State Route", "route_label": "Rte 127", "raw_number": "127"}, "geometry": {"type": "LineString", "coordinates": [[-85.044869, 36.000563], [-85.043374, 36.022989], [-85.05384, 36.0499], [-85.061315, 36.061861], [-85.06879, 36.103722], [-85.031414, 36.151564], [-85.028424, 36.169504], [-85.019453, 36.17997], [-85.019453, 36.202396], [-85.005998, 36.241267], [-84.989552, 36.254722], [-84.976097, 36.286118], [-84.974602, 36.310039], [-84.958156, 36.326485], [-84.937225, 36.387782], [-84.937225, 36.408713], [-84.931245, 36.429643], [-84.93573, 36.435624], [-84.938721, 36.462535], [-84.959651, 36.48496], [-84.970117, 36.48795], [-84.970117, 36.507386], [-84.961146, 36.513366], [-84.952176, 36.537287], [-84.968622, 36.550743], [-84.988057, 36.552238], [-85.022443, 36.567188], [-85.032909, 36.562703], [-85.047859, 36.577654], [-85.05683, 36.598584], [-85.070285, 36.619515], [-85.097196, 36.622505]]}}, {"type": "Feature", "properties": {"route_type": "US / State Route", "route_label": "Rte 129", "raw_number": "129"}, "geometry": {"type": "LineString", "coordinates": [[-83.92059, 35.474305], [-83.93255, 35.47879], [-83.93554, 35.495236], [-83.948996, 35.507196], [-83.983382, 35.504206], [-83.993848, 35.523642], [-83.992352, 35.549058], [-84.010293, 35.558028], [-84.041689, 35.543077], [-84.0686, 35.547563], [-84.082056, 35.541582], [-84.091026, 35.553543], [-84.088036, 35.562513], [-84.097006, 35.566998], [-84.094016, 35.590919], [-84.098501, 35.60288], [-84.082056, 35.634276], [-84.061125, 35.649226], [-84.05664, 35.661187], [-84.038699, 35.685107], [-84.044679, 35.697068], [-84.001323, 35.723979], [-83.989362, 35.740424]]}}, {"type": "Feature", "properties": {"route_type": "US / State Route", "route_label": "Rte 129", "raw_number": "129"}, "geometry": {"type": "LineString", "coordinates": [[-83.971422, 35.834613], [-83.971422, 35.836108]]}}, {"type": "Feature", "properties": {"route_type": "US / State Route", "route_label": "Rte 13", "raw_number": "13"}, "geometry": {"type": "LineString", "coordinates": [[-87.366685, 36.508881], [-87.363695, 36.519347], [-87.36818, 36.537287], [-87.360705, 36.541772], [-87.338279, 36.538782]]}}, {"type": "Feature", "properties": {"route_type": "US / State Route", "route_label": "Rte 15", "raw_number": "15"}, "geometry": {"type": "LineString", "coordinates": [[-86.593743, 35.157354], [-86.592248, 35.145394], [-86.569822, 35.142404]]}}, {"type": "Feature", "properties": {"route_type": "US / State Route", "route_label": "Rte 19E", "raw_number": "19E"}, "geometry": {"type": "LineString", "coordinates": [[-81.999448, 36.169504], [-82.033834, 36.187445], [-82.077191, 36.202396], [-82.104102, 36.203891], [-82.122042, 36.209871], [-82.148953, 36.230802], [-82.178854, 36.221831], [-82.187824, 36.239772]]}}, {"type": "Feature", "properties": {"route_type": "US / State Route", "route_label": "Rte 231", "raw_number": "231"}, "geometry": {"type": "LineString", "coordinates": [[-86.571318, 34.991403], [-86.577298, 35.004859], [-86.571318, 35.085592], [-86.566832, 35.105027], [-86.569822, 35.142404]]}}, {"type": "Feature", "properties": {"route_type": "US / State Route", "route_label": "Rte 231", "raw_number": "231"}, "geometry": {"type": "LineString", "coordinates": [[-86.557862, 35.158849], [-86.568327, 35.178285], [-86.563842, 35.239582], [-86.566832, 35.257523], [-86.547397, 35.278453], [-86.542912, 35.309849], [-86.529456, 35.32181], [-86.538426, 35.335265], [-86.521981, 35.357691], [-86.51002, 35.381612], [-86.49806, 35.384602], [-86.469654, 35.456364], [-86.459189, 35.487761], [-86.453208, 35.532612], [-86.439753, 35.587929]]}}, {"type": "Feature", "properties": {"route_type": "US / State Route", "route_label": "Rte 231", "raw_number": "231"}, "geometry": {"type": "LineString", "coordinates": [[-86.399387, 35.849563], [-86.390416, 35.860029], [-86.382941, 35.88694], [-86.384436, 35.918336], [-86.378456, 35.934781], [-86.376961, 35.979633], [-86.366495, 36.002059], [-86.36201, 36.018504], [-86.341079, 36.072326], [-86.320149, 36.138108], [-86.312673, 36.147079], [-86.293238, 36.19492], [-86.291743, 36.208376]]}}, {"type": "Feature", "properties": {"route_type": "US / State Route", "route_label": "Rte 231", "raw_number": "231"}, "geometry": {"type": "LineString", "coordinates": [[-86.396396, 35.812187], [-86.391911, 35.842088]]}}, {"type": "Feature", "properties": {"route_type": "US / State Route", "route_label": "Rte 231", "raw_number": "231"}, "geometry": {"type": "LineString", "coordinates": [[-86.290248, 36.208376], [-86.288753, 36.251732], [-86.275297, 36.280138], [-86.264832, 36.292099], [-86.258852, 36.32499], [-86.254366, 36.354891], [-86.257357, 36.377317], [-86.267822, 36.411703], [-86.267822, 36.458049], [-86.270812, 36.48795], [-86.278287, 36.499911]]}}, {"type": "Feature", "properties": {"route_type": "US / State Route", "route_label": "Rte 25E", "raw_number": "25E"}, "geometry": {"type": "LineString", "coordinates": [[-83.437688, 36.368346], [-83.448153, 36.389277], [-83.466094, 36.407218], [-83.493005, 36.404228], [-83.498985, 36.411703], [-83.528886, 36.425158], [-83.551312, 36.425158], [-83.569253, 36.441604], [-83.569253, 36.452069]]}}, {"type": "Feature", "properties": {"route_type": "US / State Route", "route_label": "Rte 27", "raw_number": "27"}, "geometry": {"type": "LineString", "coordinates": [[-85.293048, 35.018314], [-85.287068, 34.985423]]}}, {"type": "Feature", "properties": {"route_type": "US / State Route", "route_label": "Rte 27", "raw_number": "27"}, "geometry": {"type": "LineString", "coordinates": [[-84.48273, 35.979633], [-84.48273, 35.987108], [-84.49768, 35.993088], [-84.524591, 36.014019], [-84.523096, 36.027474], [-84.538047, 36.067841], [-84.550007, 36.082791], [-84.569443, 36.090267], [-84.599344, 36.109702], [-84.656156, 36.165019], [-84.653166, 36.172494], [-84.663631, 36.18296], [-84.660641, 36.203891], [-84.666621, 36.218841], [-84.671106, 36.245752], [-84.654661, 36.272663], [-84.659146, 36.289109], [-84.647185, 36.298079], [-84.62476, 36.304059], [-84.62775, 36.314524], [-84.600839, 36.332465], [-84.588878, 36.356386], [-84.563462, 36.383297], [-84.542532, 36.384792], [-84.536551, 36.411703], [-84.539542, 36.440109], [-84.548512, 36.46403], [-84.536551, 36.48197], [-84.515621, 36.498416], [-84.512631, 36.508881], [-84.48273, 36.535792], [-84.457314, 36.541772], [-84.446848, 36.570178], [-84.439373, 36.582139], [-84.439373, 36.595594]]}}, {"type": "Feature", "properties": {"route_type": "US / State Route", "route_label": "Rte 27", "raw_number": "27"}, "geometry": {"type": "LineString", "coordinates": [[-84.750344, 35.794246], [-84.727918, 35.815177], [-84.706987, 35.840593], [-84.695027, 35.860029], [-84.674096, 35.874979]]}}, {"type": "Feature", "properties": {"route_type": "US / State Route", "route_label": "Rte 27", "raw_number": "27"}, "geometry": {"type": "LineString", "coordinates": [[-84.563462, 35.921326], [-84.520106, 35.963187], [-84.499175, 35.970662]]}}, {"type": "Feature", "properties": {"route_type": "US / State Route", "route_label": "Rte 27", "raw_number": "27"}, "geometry": {"type": "LineString", "coordinates": [[-84.880413, 35.658197], [-84.859483, 35.692583]]}}, {"type": "Feature", "properties": {"route_type": "US / State Route", "route_label": "Rte 27", "raw_number": "27"}, "geometry": {"type": "LineString", "coordinates": [[-85.124107, 35.351711], [-85.109156, 35.381612], [-85.100186, 35.414503], [-85.083741, 35.432444]]}}, {"type": "Feature", "properties": {"route_type": "US / State Route", "route_label": "Rte 31E", "raw_number": "31E"}, "geometry": {"type": "LineString", "coordinates": [[-86.468159, 36.378812], [-86.429288, 36.404228], [-86.381446, 36.429643], [-86.370981, 36.440109], [-86.345565, 36.453564], [-86.323139, 36.47898], [-86.300713, 36.493931], [-86.267822, 36.505891], [-86.263337, 36.517852], [-86.251376, 36.525327], [-86.236426, 36.552238], [-86.240911, 36.561208], [-86.239416, 36.586624], [-86.231941, 36.607555], [-86.243901, 36.641941]]}}, {"type": "Feature", "properties": {"route_type": "US / State Route", "route_label": "Rte 321", "raw_number": "321"}, "geometry": {"type": "LineString", "coordinates": [[-82.270052, 36.32798], [-82.256597, 36.33994], [-82.231181, 36.351901]]}}, {"type": "Feature", "properties": {"route_type": "US / State Route", "route_label": "Rte 364", "raw_number": "364"}, "geometry": {"type": "LineString", "coordinates": [[-88.668876, 35.976643], [-88.64346, 35.975148], [-88.607579, 35.985613], [-88.576183, 35.984118], [-88.564222, 35.999068], [-88.541796, 36.005049], [-88.50442, 36.000563], [-88.486479, 36.012524], [-88.458073, 36.008039], [-88.425182, 35.988603], [-88.414717, 35.990098]]}}, {"type": "Feature", "properties": {"route_type": "US / State Route", "route_label": "Rte 41", "raw_number": "41"}, "geometry": {"type": "LineString", "coordinates": [[-87.389111, 36.550743], [-87.404062, 36.565693], [-87.411537, 36.583634]]}}, {"type": "Feature", "properties": {"route_type": "US / State Route", "route_label": "Rte 41", "raw_number": "41"}, "geometry": {"type": "LineString", "coordinates": [[-86.719328, 36.34293], [-86.725308, 36.357881], [-86.746239, 36.374327], [-86.765674, 36.395257], [-86.783615, 36.405723], [-86.803051, 36.423663], [-86.813516, 36.444594], [-86.882288, 36.496921], [-86.885278, 36.526822], [-86.864348, 36.552238], [-86.852387, 36.592604], [-86.856873, 36.61503], [-86.853882, 36.646426]]}}, {"type": "Feature", "properties": {"route_type": "US / State Route", "route_label": "Rte 41", "raw_number": "41"}, "geometry": {"type": "LineString", "coordinates": [[-86.215495, 35.366661], [-86.206525, 35.356196]]}}, {"type": "Feature", "properties": {"route_type": "US / State Route", "route_label": "Rte 41", "raw_number": "41"}, "geometry": {"type": "LineString", "coordinates": [[-86.399387, 35.849563], [-86.391911, 35.842088]]}}, {"type": "Feature", "properties": {"route_type": "US / State Route", "route_label": "Rte 411", "raw_number": "411"}, "geometry": {"type": "LineString", "coordinates": [[-84.271927, 35.577464], [-84.249501, 35.583444], [-84.225581, 35.595404], [-84.182224, 35.625305], [-84.05664, 35.688098], [-84.044679, 35.697068]]}}, {"type": "Feature", "properties": {"route_type": "US / State Route", "route_label": "Rte 411", "raw_number": "411"}, "geometry": {"type": "LineString", "coordinates": [[-84.520106, 35.33377], [-84.520106, 35.354701], [-84.514126, 35.362176], [-84.4917, 35.418988], [-84.487215, 35.424968], [-84.422928, 35.46384], [-84.376581, 35.507196], [-84.370601, 35.508691]]}}, {"type": "Feature", "properties": {"route_type": "US / State Route", "route_label": "Rte 411", "raw_number": "411"}, "geometry": {"type": "LineString", "coordinates": [[-84.738384, 34.988413], [-84.732403, 35.022799], [-84.735393, 35.079611], [-84.727918, 35.109512], [-84.699512, 35.161839], [-84.660641, 35.167819], [-84.618779, 35.200711], [-84.567948, 35.235097], [-84.547017, 35.267988], [-84.544027, 35.288919], [-84.527581, 35.320315]]}}, {"type": "Feature", "properties": {"route_type": "US / State Route", "route_label": "Rte 421", "raw_number": "421"}, "geometry": {"type": "LineString", "coordinates": [[-82.05925, 36.564198], [-82.048785, 36.565693], [-81.999448, 36.547753], [-81.975527, 36.534297], [-81.948616, 36.538782], [-81.936656, 36.523832], [-81.918715, 36.510376], [-81.888814, 36.495426], [-81.869378, 36.501406], [-81.854428, 36.486455], [-81.834992, 36.489446], [-81.808081, 36.48496], [-81.809576, 36.473], [-81.800606, 36.46104], [-81.796121, 36.440109], [-81.7722, 36.423663], [-81.757249, 36.398247], [-81.76024, 36.377317], [-81.757249, 36.357881], [-81.740804, 36.33994]]}}, {"type": "Feature", "properties": {"route_type": "US / State Route", "route_label": "Rte 43", "raw_number": "43"}, "geometry": {"type": "LineString", "coordinates": [[-87.51021, 35.003364], [-87.502735, 35.039245], [-87.481804, 35.054195], [-87.442933, 35.072136], [-87.410042, 35.106522], [-87.351735, 35.154364], [-87.339774, 35.184265], [-87.339774, 35.212671], [-87.323329, 35.263503], [-87.282962, 35.344236]]}}, {"type": "Feature", "properties": {"route_type": "US / State Route", "route_label": "Rte 431", "raw_number": "431"}, "geometry": {"type": "LineString", "coordinates": [[-86.868833, 36.323495], [-86.873318, 36.345921], [-86.886774, 36.360871], [-86.898734, 36.390772], [-86.892754, 36.420673], [-86.895744, 36.444594], [-86.892754, 36.471505], [-86.876308, 36.492436]]}}, {"type": "Feature", "properties": {"route_type": "US / State Route", "route_label": "Rte 441", "raw_number": "441"}, "geometry": {"type": "LineString", "coordinates": [[-83.427223, 35.610355], [-83.431708, 35.61783], [-83.457124, 35.631286], [-83.48254, 35.640256], [-83.504965, 35.640256], [-83.527391, 35.664177], [-83.536362, 35.683612], [-83.518421, 35.712018], [-83.510946, 35.713513]]}}, {"type": "Feature", "properties": {"route_type": "US / State Route", "route_label": "Rte 64", "raw_number": "64"}, "geometry": {"type": "LineString", "coordinates": [[-89.36856, 35.241077], [-89.332679, 35.241077]]}}, {"type": "Feature", "properties": {"route_type": "US / State Route", "route_label": "Rte 64", "raw_number": "64"}, "geometry": {"type": "LineString", "coordinates": [[-88.257736, 35.224631], [-88.200924, 35.226126], [-88.163548, 35.244067], [-88.132152, 35.248552], [-88.118697, 35.244067], [-88.093281, 35.247057], [-88.033479, 35.273968], [-88.011053, 35.276958]]}}, {"type": "Feature", "properties": {"route_type": "US / State Route", "route_label": "Rte 64", "raw_number": "64"}, "geometry": {"type": "LineString", "coordinates": [[-89.772224, 35.203701], [-89.719897, 35.205196], [-89.675046, 35.211176], [-89.654115, 35.209681]]}}, {"type": "Feature", "properties": {"route_type": "US / State Route", "route_label": "Rte 64", "raw_number": "64"}, "geometry": {"type": "LineString", "coordinates": [[-89.030678, 35.276958], [-89.017223, 35.273968], [-89.003767, 35.256027], [-88.979847, 35.256027], [-88.9335, 35.244067], [-88.91855, 35.242572]]}}, {"type": "Feature", "properties": {"route_type": "US / State Route", "route_label": "Rte 64", "raw_number": "64"}, "geometry": {"type": "LineString", "coordinates": [[-88.834827, 35.226126], [-88.712232, 35.209681], [-88.659905, 35.196225], [-88.609074, 35.17978]]}}, {"type": "Feature", "properties": {"route_type": "US / State Route", "route_label": "Rte 64", "raw_number": "64"}, "geometry": {"type": "LineString", "coordinates": [[-88.404252, 35.229117], [-88.393786, 35.236592], [-88.369865, 35.232107], [-88.35043, 35.223136], [-88.322024, 35.221641]]}}, {"type": "Feature", "properties": {"route_type": "US / State Route", "route_label": "Rte 64", "raw_number": "64"}, "geometry": {"type": "LineString", "coordinates": [[-87.761379, 35.320315], [-87.756894, 35.326295], [-87.704567, 35.32181], [-87.671676, 35.341245], [-87.656725, 35.34274], [-87.628319, 35.33078], [-87.593933, 35.32779], [-87.565527, 35.314335], [-87.523666, 35.314335], [-87.487785, 35.303869], [-87.445923, 35.302374], [-87.414527, 35.294899], [-87.405557, 35.288919], [-87.360705, 35.242572], [-87.339774, 35.244067], [-87.284457, 35.233602], [-87.275487, 35.229117], [-87.22316, 35.218651], [-87.199239, 35.218651], [-87.185784, 35.226126], [-87.149903, 35.232107], [-87.140932, 35.224631], [-87.114021, 35.212671], [-87.073655, 35.209681]]}}, {"type": "Feature", "properties": {"route_type": "US / State Route", "route_label": "Rte 64", "raw_number": "64"}, "geometry": {"type": "LineString", "coordinates": [[-86.557862, 35.158849], [-86.530951, 35.164829], [-86.517496, 35.161839], [-86.48909, 35.146889], [-86.454703, 35.119978], [-86.430783, 35.115493], [-86.423307, 35.096057], [-86.406862, 35.093067], [-86.35304, 35.063166], [-86.299218, 35.063166], [-86.270812, 35.072136]]}}, {"type": "Feature", "properties": {"route_type": "US / State Route", "route_label": "Rte 64", "raw_number": "64"}, "geometry": {"type": "LineString", "coordinates": [[-86.625139, 35.164829], [-86.593743, 35.157354]]}}, {"type": "Feature", "properties": {"route_type": "US / State Route", "route_label": "Rte 64", "raw_number": "64"}, "geometry": {"type": "LineString", "coordinates": [[-87.981152, 35.287424], [-87.948261, 35.308354], [-87.922845, 35.309849], [-87.882478, 35.302374], [-87.855567, 35.291909], [-87.839122, 35.296394], [-87.798755, 35.300879], [-87.78829, 35.312839], [-87.768854, 35.312839], [-87.762874, 35.31882]]}}, {"type": "Feature", "properties": {"route_type": "US / State Route", "route_label": "Rte 641", "raw_number": "641"}, "geometry": {"type": "LineString", "coordinates": [[-88.085805, 35.840593], [-88.08431, 35.867504], [-88.097766, 35.88993], [-88.114211, 35.961692], [-88.108231, 36.005049], [-88.117202, 36.03196], [-88.115706, 36.061861], [-88.111221, 36.091762], [-88.144112, 36.162029], [-88.151588, 36.17399], [-88.171023, 36.184455], [-88.212885, 36.226316], [-88.280162, 36.266683], [-88.296608, 36.283128], [-88.316043, 36.292099]]}}, {"type": "Feature", "properties": {"route_type": "US / State Route", "route_label": "Rte 641", "raw_number": "641"}, "geometry": {"type": "LineString", "coordinates": [[-88.326509, 36.301069], [-88.325014, 36.326485], [-88.333984, 36.356386], [-88.332489, 36.458049], [-88.326509, 36.499911]]}}, {"type": "Feature", "properties": {"route_type": "US / State Route", "route_label": "Rte 70", "raw_number": "70"}, "geometry": {"type": "LineString", "coordinates": [[-88.395281, 36.011029], [-88.357905, 36.028969], [-88.301093, 36.03794], [-88.274182, 36.033455], [-88.250261, 36.03794], [-88.2084, 36.03495], [-88.166538, 36.045415], [-88.136637, 36.045415], [-88.112716, 36.03495], [-88.07235, 36.030465], [-88.054409, 36.015514], [-88.043944, 36.014019], [-87.967696, 36.019999], [-87.909389, 36.0499], [-87.869023, 36.073821]]}}, {"type": "Feature", "properties": {"route_type": "US / State Route", "route_label": "Rte 70", "raw_number": "70"}, "geometry": {"type": "LineString", "coordinates": [[-87.36818, 36.073821], [-87.318844, 36.087277], [-87.287448, 36.102227], [-87.263527, 36.108207], [-87.224655, 36.108207], [-87.21419, 36.105217], [-87.182794, 36.105217], [-87.148408, 36.114187], [-87.139437, 36.120168], [-87.127477, 36.115682], [-87.111031, 36.124653], [-87.097576, 36.123158], [-87.091596, 36.112692], [-87.076645, 36.114187], [-87.040764, 36.094752], [-87.018338, 36.091762], [-87.001893, 36.096247], [-86.979467, 36.091762], [-86.93611, 36.108207], [-86.906209, 36.129138], [-86.898734, 36.130633]]}}, {"type": "Feature", "properties": {"route_type": "US / State Route", "route_label": "Rte 70", "raw_number": "70"}, "geometry": {"type": "LineString", "coordinates": [[-87.761379, 36.085781], [-87.740448, 36.088772], [-87.703072, 36.106712], [-87.662706, 36.102227], [-87.635795, 36.108207], [-87.598418, 36.097742], [-87.552072, 36.093257], [-87.417517, 36.087277]]}}, {"type": "Feature", "properties": {"route_type": "US / State Route", "route_label": "Rte 70", "raw_number": "70"}, "geometry": {"type": "LineString", "coordinates": [[-85.811831, 35.695573], [-85.808841, 35.695573]]}}, {"type": "Feature", "properties": {"route_type": "US / State Route", "route_label": "Rte 72", "raw_number": "72"}, "geometry": {"type": "LineString", "coordinates": [[-89.618234, 34.994393], [-89.65262, 35.016819], [-89.685511, 35.045225], [-89.719897, 35.048215], [-89.808106, 35.093067], [-89.869403, 35.103532]]}}, {"type": "Feature", "properties": {"route_type": "US / State Route", "route_label": "Rte 76", "raw_number": "76"}, "geometry": {"type": "LineString", "coordinates": [[-89.245966, 35.575969], [-89.239986, 35.587929], [-89.239986, 35.610355]]}}, {"type": "Feature", "properties": {"route_type": "US / State Route", "route_label": "Rte 79", "raw_number": "79"}, "geometry": {"type": "LineString", "coordinates": [[-88.142617, 36.404228], [-88.121687, 36.429643], [-88.024508, 36.452069], [-87.963211, 36.47599], [-87.945271, 36.47898], [-87.901914, 36.477485], [-87.877993, 36.48197], [-87.869023, 36.47898], [-87.840617, 36.486455], [-87.833142, 36.505891], [-87.810716, 36.531307], [-87.78829, 36.552238], [-87.752409, 36.562703]]}}, {"type": "Feature", "properties": {"route_type": "US / State Route", "route_label": "Rte 79", "raw_number": "79"}, "geometry": {"type": "LineString", "coordinates": [[-89.239986, 35.610355], [-89.157758, 35.661187], [-89.094966, 35.703048], [-89.08749, 35.715009], [-89.07553, 35.719494], [-88.979847, 35.785276], [-88.966391, 35.788266], [-88.934995, 35.813682], [-88.9335, 35.833118], [-88.915559, 35.837603]]}}, {"type": "Feature", "properties": {"route_type": "US / State Route", "route_label": "Rte 79", "raw_number": "79"}, "geometry": {"type": "LineString", "coordinates": [[-89.981532, 35.151374], [-89.897809, 35.148384], [-89.888838, 35.152869]]}}, {"type": "Feature", "properties": {"route_type": "US / State Route", "route_label": "Rte 79", "raw_number": "79"}, "geometry": {"type": "LineString", "coordinates": [[-90.045819, 35.140908], [-89.984522, 35.133433]]}}, {"type": "Feature", "properties": {"route_type": "US / State Route", "route_label": "Rte 79", "raw_number": "79"}, "geometry": {"type": "LineString", "coordinates": [[-88.896124, 35.834613], [-88.861738, 35.860029], [-88.845292, 35.874979], [-88.77951, 35.90488], [-88.764559, 35.90787], [-88.680836, 35.972157], [-88.667381, 35.976643], [-88.627014, 36.008039], [-88.520866, 36.121663], [-88.474519, 36.150069]]}}, {"type": "Feature", "properties": {"route_type": "US / State Route", "route_label": "Rte 79", "raw_number": "79"}, "geometry": {"type": "LineString", "coordinates": [[-88.335479, 36.269673], [-88.316043, 36.292099]]}}, {"type": "Feature", "properties": {"route_type": "US / State Route", "route_label": "Rte 79", "raw_number": "79"}, "geometry": {"type": "LineString", "coordinates": [[-87.552072, 36.535792], [-87.514695, 36.543267], [-87.432468, 36.553733], [-87.380141, 36.549248], [-87.36519, 36.540277]]}}, {"type": "Feature", "properties": {"route_type": "US / State Route", "route_label": "Rte 79", "raw_number": "79"}, "geometry": {"type": "LineString", "coordinates": [[-87.282962, 36.600079], [-87.275487, 36.60606], [-87.248576, 36.61204], [-87.218675, 36.628485], [-87.20522, 36.641941]]}}, {"type": "Feature", "properties": {"route_type": "US / State Route", "route_label": "Rte 111", "raw_number": "111"}, "geometry": {"type": "LineString", "coordinates": [[-85.50385, 36.102227], [-85.481424, 36.129138], [-85.473949, 36.151564]]}}, {"type": "Feature", "properties": {"route_type": "US / State Route", "route_label": "Rte 111", "raw_number": "111"}, "geometry": {"type": "LineString", "coordinates": [[-85.457504, 36.203891], [-85.418632, 36.211366], [-85.402187, 36.232297], [-85.376771, 36.256217], [-85.3678, 36.280138], [-85.351355, 36.296584], [-85.34089, 36.317515], [-85.334909, 36.359376], [-85.34089, 36.368346], [-85.334909, 36.378812]]}}, {"type": "Feature", "properties": {"route_type": "US / State Route", "route_label": "Rte 162", "raw_number": "162"}, "geometry": {"type": "LineString", "coordinates": [[-84.215115, 35.988603], [-84.189699, 35.990098], [-84.174749, 35.966177], [-84.144848, 35.934781]]}}, {"type": "Feature", "properties": {"route_type": "US / State Route", "route_label": "Rte 55", "raw_number": "55"}, "geometry": {"type": "LineString", "coordinates": [[-86.160178, 35.386097], [-86.119812, 35.411513], [-86.106356, 35.430949]]}}, {"type": "Feature", "properties": {"route_type": "US / State Route", "route_label": "Rte 55", "raw_number": "55"}, "geometry": {"type": "LineString", "coordinates": [[-86.028614, 35.520652], [-86.016653, 35.526632], [-85.997217, 35.544573], [-85.959841, 35.564008], [-85.946386, 35.580454]]}}, {"type": "Feature", "properties": {"route_type": "US / State Route", "route_label": "Rte 55", "raw_number": "55"}, "geometry": {"type": "LineString", "coordinates": [[-85.817811, 35.647731], [-85.811831, 35.695573]]}}, {"type": "Feature", "properties": {"route_type": "US / State Route", "route_label": "Rte 61", "raw_number": "61"}, "geometry": {"type": "LineString", "coordinates": [[-84.34668, 36.045415], [-84.307808, 36.018504], [-84.288373, 36.019999]]}}, {"type": "Feature", "properties": {"route_type": "US / State Route", "route_label": "Rte 62", "raw_number": "62"}, "geometry": {"type": "LineString", "coordinates": [[-84.270432, 36.009534], [-84.242026, 36.000563], [-84.230066, 36.003554], [-84.21661, 35.988603]]}}, {"type": "Feature", "properties": {"route_type": "US / State Route", "route_label": "Rte 66", "raw_number": "66"}, "geometry": {"type": "LineString", "coordinates": [[-83.567758, 35.868999], [-83.581213, 35.900395], [-83.579718, 35.918336], [-83.585698, 35.948237], [-83.608124, 35.982623]]}}, {"type": "Feature", "properties": {"route_type": "US / State Route", "route_label": "Rte 1", "raw_number": "1"}, "geometry": {"type": "LineString", "coordinates": [[-85.808841, 35.695573], [-85.780435, 35.701553], [-85.743059, 35.697068], [-85.723623, 35.715009], [-85.701197, 35.712018], [-85.681761, 35.728464], [-85.665316, 35.735939], [-85.621959, 35.770325], [-85.596543, 35.780791], [-85.569633, 35.807702], [-85.538236, 35.816672], [-85.520296, 35.828632], [-85.50086, 35.848068], [-85.469464, 35.871989], [-85.472454, 35.909365], [-85.487405, 35.921326], [-85.484415, 35.936276]]}}, {"type": "Feature", "properties": {"route_type": "US / State Route", "route_label": "Rte 11E", "raw_number": "11E"}, "geometry": {"type": "LineString", "coordinates": [[-83.841352, 36.011029], [-83.826402, 36.017009], [-83.738194, 36.024484], [-83.703807, 36.054385], [-83.675401, 36.064851], [-83.64251, 36.070831], [-83.608124, 36.084286], [-83.551312, 36.102227], [-83.490015, 36.115682], [-83.476559, 36.120168], [-83.394332, 36.17698], [-83.322569, 36.206881]]}}, {"type": "Feature", "properties": {"route_type": "US / State Route", "route_label": "Rte 11E", "raw_number": "11E"}, "geometry": {"type": "LineString", "coordinates": [[-83.040004, 36.224821], [-83.023559, 36.218841], [-82.993658, 36.19492], [-82.974222, 36.187445], [-82.935351, 36.18595], [-82.91442, 36.17399], [-82.878539, 36.170999], [-82.865083, 36.168009], [-82.814251, 36.17997], [-82.802291, 36.17698], [-82.773885, 36.178475], [-82.76641, 36.184455], [-82.746974, 36.181465], [-82.727538, 36.19193], [-82.699132, 36.223326], [-82.678202, 36.229306], [-82.63933, 36.232297], [-82.591489, 36.254722], [-82.554112, 36.262198], [-82.521221, 36.277148], [-82.509261, 36.289109], [-82.480855, 36.295089], [-82.428528, 36.313029], [-82.400122, 36.310039], [-82.386666, 36.311534]]}}, {"type": "Feature", "properties": {"route_type": "US / State Route", "route_label": "Rte 11W", "raw_number": "11W"}, "geometry": {"type": "LineString", "coordinates": [[-82.981697, 36.428148], [-82.945816, 36.458049], [-82.91442, 36.46702], [-82.890499, 36.46702], [-82.859103, 36.477485], [-82.806776, 36.501406], [-82.743984, 36.519347], [-82.708103, 36.517852], [-82.694647, 36.522337], [-82.652786, 36.546258], [-82.610924, 36.555228], [-82.572053, 36.559713], [-82.543647, 36.558218], [-82.513746, 36.546258], [-82.504776, 36.544762], [-82.477865, 36.558218], [-82.431518, 36.574664], [-82.397132, 36.570178], [-82.356765, 36.577654], [-82.34331, 36.574664], [-82.320884, 36.582139], [-82.308924, 36.579149], [-82.280518, 36.591109], [-82.258092, 36.588119]]}}, {"type": "Feature", "properties": {"route_type": "US / State Route", "route_label": "Rte 11W", "raw_number": "11W"}, "geometry": {"type": "LineString", "coordinates": [[-83.437688, 36.368346], [-83.428718, 36.347416], [-83.406292, 36.353396], [-83.394332, 36.350406], [-83.339015, 36.360871], [-83.333034, 36.34293], [-83.307619, 36.347416], [-83.277718, 36.34293], [-83.261272, 36.345921], [-83.20745, 36.344425], [-83.173064, 36.360871], [-83.105787, 36.386287], [-83.075885, 36.386287], [-83.06542, 36.378812]]}}, {"type": "Feature", "properties": {"route_type": "US / State Route", "route_label": "Rte 11W", "raw_number": "11W"}, "geometry": {"type": "LineString", "coordinates": [[-83.874243, 36.008039], [-83.851818, 36.021494], [-83.842847, 36.03495], [-83.805471, 36.048405], [-83.77557, 36.069336], [-83.763609, 36.084286], [-83.730718, 36.115682], [-83.712778, 36.144088], [-83.691847, 36.169504]]}}, {"type": "Feature", "properties": {"route_type": "US / State Route", "route_label": "Rte 127", "raw_number": "127"}, "geometry": {"type": "LineString", "coordinates": [[-85.044869, 36.000563], [-85.038889, 35.990098], [-85.035899, 35.961692]]}}, {"type": "Feature", "properties": {"route_type": "US / State Route", "route_label": "Rte 129", "raw_number": "129"}, "geometry": {"type": "LineString", "coordinates": [[-83.989362, 35.740424], [-83.993848, 35.755375], [-83.987867, 35.76285], [-83.992352, 35.792751], [-83.971422, 35.834613]]}}, {"type": "Feature", "properties": {"route_type": "US / State Route", "route_label": "Rte 129", "raw_number": "129"}, "geometry": {"type": "LineString", "coordinates": [[-83.971422, 35.836108], [-83.959461, 35.857038], [-83.959461, 35.876474], [-83.953481, 35.894415], [-83.956471, 35.919831], [-83.947501, 35.945247]]}}, {"type": "Feature", "properties": {"route_type": "US / State Route", "route_label": "Rte 19E", "raw_number": "19E"}, "geometry": {"type": "LineString", "coordinates": [[-82.187824, 36.239772], [-82.193805, 36.247247], [-82.181844, 36.268178], [-82.175864, 36.289109], [-82.199785, 36.314524], [-82.208755, 36.353396], [-82.231181, 36.351901]]}}, {"type": "Feature", "properties": {"route_type": "US / State Route", "route_label": "Rte 231", "raw_number": "231"}, "geometry": {"type": "LineString", "coordinates": [[-86.396396, 35.812187], [-86.403872, 35.75986], [-86.420317, 35.701553], [-86.417327, 35.683612], [-86.439753, 35.587929]]}}, {"type": "Feature", "properties": {"route_type": "US / State Route", "route_label": "Rte 231", "raw_number": "231"}, "geometry": {"type": "LineString", "coordinates": [[-86.569822, 35.142404], [-86.554872, 35.154364], [-86.557862, 35.158849]]}}, {"type": "Feature", "properties": {"route_type": "US / State Route", "route_label": "Rte 25", "raw_number": "25"}, "geometry": {"type": "LineString", "coordinates": [[-83.661946, 36.592604], [-83.676896, 36.597089]]}}, {"type": "Feature", "properties": {"route_type": "US / State Route", "route_label": "Rte 25E", "raw_number": "25E"}, "geometry": {"type": "LineString", "coordinates": [[-83.569253, 36.452069], [-83.567758, 36.458049], [-83.584203, 36.47898], [-83.596164, 36.504396], [-83.62756, 36.534297], [-83.652976, 36.565693], [-83.658956, 36.600079]]}}, {"type": "Feature", "properties": {"route_type": "US / State Route", "route_label": "Rte 25E", "raw_number": "25E"}, "geometry": {"type": "LineString", "coordinates": [[-83.280708, 36.136613], [-83.270242, 36.166514], [-83.273232, 36.18595], [-83.256787, 36.220336], [-83.262767, 36.239772], [-83.283698, 36.259208], [-83.282203, 36.289109], [-83.291173, 36.302564], [-83.280708, 36.326485], [-83.283698, 36.34293]]}}, {"type": "Feature", "properties": {"route_type": "US / State Route", "route_label": "Rte 27", "raw_number": "27"}, "geometry": {"type": "LineString", "coordinates": [[-84.674096, 35.874979], [-84.650175, 35.88694], [-84.606819, 35.897405], [-84.576918, 35.916841], [-84.563462, 35.921326]]}}, {"type": "Feature", "properties": {"route_type": "US / State Route", "route_label": "Rte 27", "raw_number": "27"}, "geometry": {"type": "LineString", "coordinates": [[-85.083741, 35.432444], [-85.073275, 35.442909], [-85.058325, 35.448889], [-85.023938, 35.48178], [-85.011978, 35.489256], [-84.997028, 35.519157], [-84.977592, 35.534107], [-84.947691, 35.571483], [-84.901344, 35.625305], [-84.887889, 35.650721], [-84.880413, 35.658197]]}}, {"type": "Feature", "properties": {"route_type": "US / State Route", "route_label": "Rte 27", "raw_number": "27"}, "geometry": {"type": "LineString", "coordinates": [[-85.151018, 35.299384], [-85.142048, 35.309849], [-85.124107, 35.351711]]}}, {"type": "Feature", "properties": {"route_type": "US / State Route", "route_label": "Rte 27", "raw_number": "27"}, "geometry": {"type": "LineString", "coordinates": [[-84.499175, 35.970662], [-84.48273, 35.979633]]}}, {"type": "Feature", "properties": {"route_type": "US / State Route", "route_label": "Rte 27", "raw_number": "27"}, "geometry": {"type": "LineString", "coordinates": [[-84.859483, 35.692583], [-84.814631, 35.732949], [-84.798186, 35.741919], [-84.750344, 35.794246]]}}, {"type": "Feature", "properties": {"route_type": "US / State Route", "route_label": "Rte 31", "raw_number": "31"}, "geometry": {"type": "LineString", "coordinates": [[-87.016843, 35.635771], [-86.995912, 35.685107], [-86.970496, 35.716504], [-86.943586, 35.740424]]}}, {"type": "Feature", "properties": {"route_type": "US / State Route", "route_label": "Rte 321", "raw_number": "321"}, "geometry": {"type": "LineString", "coordinates": [[-84.324254, 35.874979], [-84.322759, 35.861524], [-84.303323, 35.852553], [-84.307808, 35.842088], [-84.297343, 35.840593], [-84.270432, 35.822652], [-84.252492, 35.792751], [-84.243521, 35.794246], [-84.242026, 35.780791], [-84.218105, 35.75687], [-84.21362, 35.74491], [-84.200165, 35.738929], [-84.171759, 35.735939], [-84.138868, 35.75388], [-84.119432, 35.75089], [-84.092521, 35.755375], [-84.06262, 35.758365], [-84.023749, 35.755375], [-83.995343, 35.749395]]}}, {"type": "Feature", "properties": {"route_type": "US / State Route", "route_label": "Rte 364", "raw_number": "364"}, "geometry": {"type": "LineString", "coordinates": [[-88.395281, 36.011029], [-88.414717, 35.990098]]}}, {"type": "Feature", "properties": {"route_type": "US / State Route", "route_label": "Rte 41", "raw_number": "41"}, "geometry": {"type": "LineString", "coordinates": [[-87.411537, 36.583634], [-87.429478, 36.610545], [-87.435458, 36.640446]]}}, {"type": "Feature", "properties": {"route_type": "US / State Route", "route_label": "Rte 411", "raw_number": "411"}, "geometry": {"type": "LineString", "coordinates": [[-84.370601, 35.508691], [-84.283888, 35.571483], [-84.271927, 35.577464]]}}, {"type": "Feature", "properties": {"route_type": "US / State Route", "route_label": "Rte 411", "raw_number": "411"}, "geometry": {"type": "LineString", "coordinates": [[-84.520106, 35.33377], [-84.527581, 35.320315]]}}, {"type": "Feature", "properties": {"route_type": "US / State Route", "route_label": "Rte 412", "raw_number": "412"}, "geometry": {"type": "LineString", "coordinates": [[-89.347629, 36.072326], [-89.344639, 36.067841], [-89.340154, 36.025979], [-89.325204, 35.960197], [-89.293808, 35.937771], [-89.269887, 35.91385], [-89.235501, 35.891425], [-89.196629, 35.852553], [-89.187659, 35.837603], [-89.154768, 35.807702], [-89.147292, 35.795741], [-89.103936, 35.7479], [-89.06955, 35.731454], [-89.051609, 35.712018], [-89.024698, 35.700058], [-89.000777, 35.692583], [-88.969381, 35.677632], [-88.92453, 35.674642], [-88.890144, 35.665672], [-88.875193, 35.656701]]}}, {"type": "Feature", "properties": {"route_type": "US / State Route", "route_label": "Rte 421", "raw_number": "421"}, "geometry": {"type": "LineString", "coordinates": [[-82.160914, 36.562703], [-82.159418, 36.553733], [-82.136993, 36.541772], [-82.105597, 36.547753], [-82.077191, 36.561208], [-82.05925, 36.564198]]}}, {"type": "Feature", "properties": {"route_type": "US / State Route", "route_label": "Rte 43", "raw_number": "43"}, "geometry": {"type": "LineString", "coordinates": [[-87.282962, 35.344236], [-87.271002, 35.368156], [-87.281467, 35.408523], [-87.278477, 35.441414], [-87.268012, 35.448889], [-87.259042, 35.46982], [-87.236616, 35.48477], [-87.232131, 35.502711], [-87.212695, 35.522147], [-87.200735, 35.544573], [-87.134952, 35.613345], [-87.130467, 35.635771], [-87.048239, 35.647731], [-87.016843, 35.635771]]}}, {"type": "Feature", "properties": {"route_type": "US / State Route", "route_label": "Rte 441", "raw_number": "441"}, "geometry": {"type": "LineString", "coordinates": [[-83.510946, 35.713513], [-83.518421, 35.728464], [-83.518421, 35.741919], [-83.525896, 35.76883], [-83.545332, 35.777801], [-83.576728, 35.804712], [-83.569253, 35.845078], [-83.567758, 35.868999]]}}, {"type": "Feature", "properties": {"route_type": "US / State Route", "route_label": "Rte 50", "raw_number": "50"}, "geometry": {"type": "LineString", "coordinates": [[-86.270812, 35.072136], [-86.228951, 35.094562], [-86.193069, 35.124463], [-86.166158, 35.134928], [-86.134762, 35.164829], [-86.088416, 35.163334], [-86.073465, 35.167819], [-86.06599, 35.19473], [-86.043564, 35.206691], [-86.043564, 35.227621], [-86.027119, 35.250047], [-86.010673, 35.257523], [-85.991237, 35.257523], [-85.964326, 35.267988], [-85.916485, 35.279948], [-85.903029, 35.299384]]}}, {"type": "Feature", "properties": {"route_type": "US / State Route", "route_label": "Rte 64", "raw_number": "64"}, "geometry": {"type": "LineString", "coordinates": [[-84.92377, 35.142404], [-84.884899, 35.131938], [-84.860978, 35.133433], [-84.847522, 35.149879], [-84.810146, 35.145394], [-84.762304, 35.133433], [-84.717453, 35.127453]]}}, {"type": "Feature", "properties": {"route_type": "US / State Route", "route_label": "Rte 64", "raw_number": "64"}, "geometry": {"type": "LineString", "coordinates": [[-87.073655, 35.209681], [-87.055714, 35.170809], [-86.974982, 35.178285], [-86.958536, 35.175295], [-86.9391, 35.18277], [-86.922655, 35.18277], [-86.903219, 35.19473], [-86.883783, 35.19772], [-86.861358, 35.190245], [-86.835942, 35.19473], [-86.816506, 35.184265], [-86.7881, 35.200711], [-86.755209, 35.199215], [-86.732783, 35.209681], [-86.705872, 35.196225], [-86.686437, 35.196225], [-86.635605, 35.17978], [-86.625139, 35.164829]]}}, {"type": "Feature", "properties": {"route_type": "US / State Route", "route_label": "Rte 64", "raw_number": "64"}, "geometry": {"type": "LineString", "coordinates": [[-89.654115, 35.209681], [-89.63767, 35.209681], [-89.619729, 35.220146], [-89.573382, 35.226126], [-89.500125, 35.229117], [-89.398461, 35.235097], [-89.36856, 35.241077]]}}, {"type": "Feature", "properties": {"route_type": "US / State Route", "route_label": "Rte 64", "raw_number": "64"}, "geometry": {"type": "LineString", "coordinates": [[-89.332679, 35.241077], [-89.302778, 35.247057], [-89.265402, 35.266493], [-89.248956, 35.282938], [-89.162243, 35.317325], [-89.132342, 35.320315], [-89.120382, 35.297889], [-89.094966, 35.284433], [-89.068055, 35.276958], [-89.030678, 35.276958]]}}, {"type": "Feature", "properties": {"route_type": "US / State Route", "route_label": "Rte 64", "raw_number": "64"}, "geometry": {"type": "LineString", "coordinates": [[-88.011053, 35.276958], [-87.981152, 35.287424]]}}, {"type": "Feature", "properties": {"route_type": "US / State Route", "route_label": "Rte 64", "raw_number": "64"}, "geometry": {"type": "LineString", "coordinates": [[-88.322024, 35.221641], [-88.298103, 35.227621], [-88.257736, 35.224631]]}}, {"type": "Feature", "properties": {"route_type": "US / State Route", "route_label": "Rte 64", "raw_number": "64"}, "geometry": {"type": "LineString", "coordinates": [[-88.91855, 35.242572], [-88.882668, 35.238087], [-88.834827, 35.226126]]}}, {"type": "Feature", "properties": {"route_type": "US / State Route", "route_label": "Rte 641", "raw_number": "641"}, "geometry": {"type": "LineString", "coordinates": [[-88.316043, 36.292099], [-88.326509, 36.301069]]}}, {"type": "Feature", "properties": {"route_type": "US / State Route", "route_label": "Rte 70", "raw_number": "70"}, "geometry": {"type": "LineString", "coordinates": [[-87.417517, 36.087277], [-87.392101, 36.087277], [-87.36818, 36.073821]]}}, {"type": "Feature", "properties": {"route_type": "US / State Route", "route_label": "Rte 70", "raw_number": "70"}, "geometry": {"type": "LineString", "coordinates": [[-87.869023, 36.073821], [-87.803241, 36.084286], [-87.77932, 36.081296], [-87.761379, 36.085781]]}}, {"type": "Feature", "properties": {"route_type": "US / State Route", "route_label": "Rte 70", "raw_number": "70"}, "geometry": {"type": "LineString", "coordinates": [[-89.984522, 35.133433], [-89.981532, 35.151374]]}}, {"type": "Feature", "properties": {"route_type": "US / State Route", "route_label": "Rte 79", "raw_number": "79"}, "geometry": {"type": "LineString", "coordinates": [[-87.752409, 36.562703], [-87.734468, 36.562703], [-87.653735, 36.546258], [-87.571507, 36.534297], [-87.552072, 36.535792]]}}, {"type": "Feature", "properties": {"route_type": "US / State Route", "route_label": "Rte 79", "raw_number": "79"}, "geometry": {"type": "LineString", "coordinates": [[-87.338279, 36.538782], [-87.335289, 36.544762], [-87.306883, 36.567188], [-87.282962, 36.600079]]}}, {"type": "Feature", "properties": {"route_type": "US / State Route", "route_label": "Rte 79", "raw_number": "79"}, "geometry": {"type": "LineString", "coordinates": [[-88.316043, 36.292099], [-88.302588, 36.305554], [-88.142617, 36.404228]]}}, {"type": "Feature", "properties": {"route_type": "US / State Route", "route_label": "Rte 79", "raw_number": "79"}, "geometry": {"type": "LineString", "coordinates": [[-88.474519, 36.150069], [-88.447608, 36.172494], [-88.419202, 36.2009], [-88.363885, 36.236782], [-88.335479, 36.269673]]}}, {"type": "Feature", "properties": {"route_type": "US / State Route", "route_label": "Rte 79", "raw_number": "79"}, "geometry": {"type": "LineString", "coordinates": [[-88.915559, 35.837603], [-88.896124, 35.834613]]}}, {"type": "Feature", "properties": {"route_type": "Interstate", "route_label": "I-24", "raw_number": "24"}, "geometry": {"type": "LineString", "coordinates": [[-85.826782, 35.230612], [-85.811831, 35.229117], [-85.799871, 35.214166], [-85.78791, 35.209681], [-85.78492, 35.18875], [-85.795385, 35.170809]]}}, {"type": "Feature", "properties": {"route_type": "Major Highway", "route_label": "111", "raw_number": "111"}, "geometry": {"type": "LineString", "coordinates": [[-85.487405, 35.969167], [-85.50086, 35.991593], [-85.50684, 36.04093], [-85.50385, 36.102227]]}}, {"type": "Feature", "properties": {"route_type": "Major Highway", "route_label": "124", "raw_number": "124"}, "geometry": {"type": "LineString", "coordinates": [[-85.318464, 35.03177], [-85.313979, 35.051205], [-85.322949, 35.076621], [-85.324444, 35.091572], [-85.297533, 35.119978], [-85.294543, 35.136423], [-85.275107, 35.175295], [-85.237731, 35.19174], [-85.194374, 35.235097], [-85.183909, 35.241077], [-85.161483, 35.267988], [-85.152513, 35.284433], [-85.151018, 35.299384]]}}, {"type": "Feature", "properties": {"route_type": "Major Highway", "route_label": "23", "raw_number": "23"}, "geometry": {"type": "LineString", "coordinates": [[-82.582518, 36.556723], [-82.581023, 36.583634], [-82.572053, 36.594099]]}}, {"type": "Feature", "properties": {"route_type": "Major Highway", "route_label": "67", "raw_number": "67"}, "geometry": {"type": "LineString", "coordinates": [[-82.338825, 36.308544], [-82.279023, 36.31901], [-82.270052, 36.32798]]}}, {"type": "Feature", "properties": {"route_type": "Interstate", "route_label": "I-140", "raw_number": "140"}, "geometry": {"type": "LineString", "coordinates": [[-84.120927, 35.91086], [-84.116442, 35.900395], [-84.101491, 35.885444], [-84.082056, 35.855543], [-84.038699, 35.866009], [-84.016273, 35.849563], [-84.001323, 35.849563], [-83.971422, 35.836108]]}}, {"type": "Feature", "properties": {"route_type": "US / State Route", "route_label": "Rte 25", "raw_number": "25"}, "geometry": {"type": "LineString", "coordinates": [[-82.8434358255957, 35.899295677916996], [-82.847142, 35.90189], [-82.865083, 35.900395], [-82.880034, 35.90488], [-82.90545, 35.918336], [-82.912925, 35.918336]]}}, {"type": "Feature", "properties": {"route_type": "US / State Route", "route_label": "Rte 321", "raw_number": "321"}, "geometry": {"type": "LineString", "coordinates": [[-81.90436938064789, 36.2769370031696], [-81.921705, 36.283128]]}}, {"type": "Feature", "properties": {"route_type": "US / State Route", "route_label": "Rte 129", "raw_number": "129"}, "geometry": {"type": "LineString", "coordinates": [[-83.92059, 35.474305], [-83.92059, 35.462345], [-83.92956, 35.450384], [-83.941521, 35.450384], [-83.93554, 35.441414], [-83.9314353742434, 35.44078251911437]]}}, {"type": "Feature", "properties": {"route_type": "US / State Route", "route_label": "Rte 19E", "raw_number": "19E"}, "geometry": {"type": "LineString", "coordinates": [[-81.98270661468031, 36.16113354063055], [-81.999448, 36.169504]]}}, {"type": "Feature", "properties": {"route_type": "US / State Route", "route_label": "Rte 421", "raw_number": "421"}, "geometry": {"type": "LineString", "coordinates": [[-81.73623141261942, 36.32993165728506], [-81.734824, 36.332465], [-81.739309, 36.33994]]}}, {"type": "Feature", "properties": {"route_type": "US / State Route", "route_label": "Rte 441", "raw_number": "441"}, "geometry": {"type": "LineString", "coordinates": [[-83.4120991223195, 35.5952311223195], [-83.427223, 35.610355]]}}, {"type": "Feature", "properties": {"route_type": "Interstate", "route_label": "I-26", "raw_number": "26"}, "geometry": {"type": "LineString", "coordinates": [[-82.522716, 36.453564], [-82.539162, 36.459545], [-82.545142, 36.483465], [-82.573548, 36.510376], [-82.581023, 36.525327], [-82.582518, 36.556723]]}}]}