{"type":"FeatureCollection","features":[{"type":"Feature","properties":{},"geometry":{"type":"Polygon","coordinates":[[[-100.0,25.0],[-100.0,45.0],[-70.0,45.0],[-70.0,25.0],[-100.0,25.0]],[[-85.3639,34.9834],[-84.3219,34.9884],[-84.2902,35.2256],[-84.2237,35.2691],[-84.2029,35.2558],[-84.0975,35.2474],[-84.0557,35.2682],[-84.0214,35.3014],[-84.0381,35.3484],[-84.0248,35.3539],[-84.0023,35.4225],[-83.9611,35.4641],[-83.9529,35.4606],[-83.9339,35.4724],[-83.8801,35.5187],[-83.7569,35.5636],[-83.6763,35.5703],[-83.4983,35.563],[-83.4855,35.5682],[-83.4791,35.5833],[-83.4458,35.6118],[-83.2972,35.6578],[-83.2542,35.6958],[-83.2512,35.7199],[-83.1649,35.76],[-83.1003,35.7748],[-82.9958,35.7731],[-82.984,35.778],[-82.9184,35.8455],[-82.898,35.8813],[-82.9133,35.9241],[-82.8985,35.9451],[-82.8742,35.9527],[-82.8526,35.9491],[-82.8301,35.933],[-82.7786,35.9748],[-82.7545,36.0043],[-82.6836,36.0461],[-82.6372,36.0658],[-82.6029,36.0398],[-82.6151,36.0003],[-82.6113,35.9732],[-82.5575,35.9547],[-82.5071,35.9775],[-82.463,36.0073],[-82.4095,36.0834],[-82.3484,36.1159],[-82.2377,36.1392],[-82.2221,36.1569],[-82.2113,36.159],[-82.1479,36.1495],[-82.1271,36.1044],[-82.0801,36.1057],[-82.0266,36.1302],[-81.9081,36.302],[-81.855,36.3373],[-81.7937,36.3604],[-81.7897,36.3483],[-81.7649,36.3387],[-81.7259,36.3404],[-81.7151,36.4534],[-81.6959,36.4916],[-81.708,36.5362],[-81.7,36.5397],[-81.6775,36.5881],[-81.6469,36.6119],[-81.9226,36.6162],[-81.9341,36.5942],[-83.2489,36.5938],[-83.6754,36.6008],[-83.6907,36.5826],[-84.7853,36.6034],[-85.0961,36.6225],[-85.2763,36.6265],[-85.5515,36.6157],[-86.0328,36.6304],[-86.4685,36.6518],[-86.5641,36.6335],[-86.605,36.6521],[-87.8532,36.6332],[-87.8496,36.6637],[-88.0705,36.6781],[-88.0451,36.6029],[-88.0325,36.5407],[-88.0378,36.5138],[-88.0532,36.4971],[-89.2823,36.5068],[-89.4173,36.499],[-89.4485,36.4644],[-89.4717,36.457],[-89.4932,36.4701],[-89.4851,36.4977],[-89.5391,36.4982],[-89.5195,36.4754],[-89.5096,36.3751],[-89.5132,36.3599],[-89.5318,36.3392],[-89.6057,36.3422],[-89.6158,36.3361],[-89.6203,36.323],[-89.6118,36.3091],[-89.5785,36.2883],[-89.5395,36.2774],[-89.5347,36.2526],[-89.6024,36.2381],[-89.6913,36.2521],[-89.6998,36.2484],[-89.607,36.1712],[-89.5916,36.1441],[-89.594,36.1272],[-89.6242,36.1086],[-89.6844,36.0517],[-89.6903,36.0248],[-89.7069,36.001],[-89.7331,36.0006],[-89.72,35.9746],[-89.6869,35.9477],[-89.6881,35.8969],[-89.7149,35.9062],[-89.7336,35.9047],[-89.7657,35.8913],[-89.7736,35.8717],[-89.7694,35.8616],[-89.7093,35.8389],[-89.701,35.8282],[-89.7039,35.8203],[-89.8212,35.7567],[-89.8656,35.7466],[-89.91,35.7594],[-89.9563,35.7334],[-89.9558,35.6906],[-89.9374,35.6657],[-89.9061,35.6511],[-89.8849,35.6551],[-89.9098,35.5379],[-89.9573,35.5287],[-90.0173,35.556],[-90.0329,35.5534],[-90.0397,35.548],[-90.034,35.4688],[-90.0591,35.4579],[-90.0744,35.4725],[-90.1077,35.4769],[-90.169,35.4219],[-90.1793,35.3852],[-90.1662,35.3747],[-90.1436,35.3747],[-90.0936,35.3933],[-90.0867,35.3699],[-90.1149,35.3039],[-90.1589,35.3006],[-90.1689,35.282],[-90.1521,35.256],[-90.1051,35.2543],[-90.0774,35.2255],[-90.0654,35.1377],[-90.0834,35.1217],[-90.1006,35.1167],[-90.1428,35.1351],[-90.1601,35.1288],[-90.1746,35.1167],[-90.1939,35.0616],[-90.2956,35.0401],[-90.3099,35.0097],[-90.3093,34.9957],[-89.8834,34.9943],[-88.2001,34.9956],[-88.1825,35.0077],[-86.8621,34.992],[-85.3639,34.9834]]]}}]}